State,State Code,District,Block,GP_name,GP Code,Latitude,Longitude,BHQ,BHQ Latitude,BHQ Longitude
KERALA,32,ALAPPUZHA,AMBALAPPUZHA,AMBALAPPUZHA ( NORTH ),220968,9.4064710,76.3512390,AMBALAPUZHA EXCHANGE,9.382930,76.355720
KERALA,32,ALAPPUZHA,AMBALAPPUZHA,AMBALAPPUZHA(SOUTH),220969,9.3831510,76.3559350,AMBALAPUZHA EXCHANGE,9.382930,76.355720
KERALA,32,ALAPPUZHA,AMBALAPPUZHA,PUNNAPRA (NORTH),220970,9.4510260,76.3422580,AMBALAPUZHA EXCHANGE,9.382930,76.355720
KERALA,32,ALAPPUZHA,AMBALAPPUZHA,PUNNAPRA(SOUTH),220971,9.4325700,76.3451470,AMBALAPUZHA EXCHANGE,9.382930,76.355720
KERALA,32,ALAPPUZHA,AMBALAPPUZHA,PURAKKAD,220972,9.3532870,76.3655850,AMBALAPUZHA EXCHANGE,9.382930,76.355720
KERALA,32,ALAPPUZHA,ARYAD,ARYAD,220973,9.5404000,76.3423200,SL PURAM EXCHANGE,9.610064,76.328637
KERALA,32,ALAPPUZHA,ARYAD,MANNANCHERY,220974,9.5721500,76.3471800,SL PURAM EXCHANGE,9.610064,76.328637
KERALA,32,ALAPPUZHA,ARYAD,MARARIKKULAM SOUTH,220975,9.5635700,76.3093600,SL PURAM EXCHANGE,9.610064,76.328637
KERALA,32,ALAPPUZHA,ARYAD,MUHAMMA,221009,9.6130000,76.3630500,SL PURAM EXCHANGE,9.610064,76.328637
KERALA,32,ALAPPUZHA,BHARANICAVU,BHARANIKKAVU,220976,9.1774600,76.5534300,NOORANAD EXCHANGE,9.175265,76.619686
KERALA,32,ALAPPUZHA,BHARANICAVU,CHUNAKKARA,220977,9.1979800,76.5981100,NOORANAD EXCHANGE,9.175265,76.619686
KERALA,32,ALAPPUZHA,BHARANICAVU,MAVELIKKARA THAMARAKKULAM,220978,9.1452500,76.6147200,NOORANAD EXCHANGE,9.175265,76.619686
KERALA,32,ALAPPUZHA,BHARANICAVU,NOORANAD,220979,9.1937400,76.6361800,NOORANAD EXCHANGE,9.175265,76.619686
KERALA,32,ALAPPUZHA,BHARANICAVU,PALAMEL,220980,9.1753300,76.6396300,NOORANAD EXCHANGE,9.175265,76.619686
KERALA,32,ALAPPUZHA,BHARANICAVU,VALLIKUNNAM,220981,9.1304000,76.5562400,NOORANAD EXCHANGE,9.175265,76.619686
KERALA,32,ALAPPUZHA,CHAMPAKULAM,CHAMPAKKULAM,220982,9.4354800,76.4220700,PULINCUNNU EXCHANGE,9.43560,76.44739
KERALA,32,ALAPPUZHA,CHAMPAKULAM,EDATHUA,220983,9.3660850,76.4761210,PULINCUNNU EXCHANGE,9.43560,76.44739
KERALA,32,ALAPPUZHA,CHAMPAKULAM,KAINAKARY,220984,9.4786030,76.3870540,PULINCUNNU EXCHANGE,9.43560,76.44739
KERALA,32,ALAPPUZHA,CHAMPAKULAM,NEDUMUDI,220985,9.4022390,76.4110470,PULINCUNNU EXCHANGE,9.43560,76.44739
KERALA,32,ALAPPUZHA,CHAMPAKULAM,THAKAZHI,220986,9.3716180,76.4120260,PULINCUNNU EXCHANGE,9.43560,76.44739
KERALA,32,ALAPPUZHA,CHAMPAKULAM,THALAVADI,220987,9.3683900,76.5084000,PULINCUNNU EXCHANGE,9.43560,76.44739
KERALA,32,ALAPPUZHA,CHENGANNUR,ALA,220988,9.2861300,76.6087600,CHENGANNOOR OLT,9.321037,76.617608
KERALA,32,ALAPPUZHA,CHENGANNUR,BUDHANNOOR,220989,9.3077298,76.5629283,CHENGANNOOR OLT,9.321037,76.617608
KERALA,32,ALAPPUZHA,CHENGANNUR,CHERIYANAD,220990,9.2754600,76.5986000,CHENGANNOOR OLT,9.321037,76.617608
KERALA,32,ALAPPUZHA,CHENGANNUR,MULAKKUZHA,220992,9.2913874,76.6478785,CHENGANNOOR OLT,9.321037,76.617608
KERALA,32,ALAPPUZHA,CHENGANNUR,PANDANAD,220993,9.3259542,76.5801435,CHENGANNOOR OLT,9.321037,76.617608
KERALA,32,ALAPPUZHA,CHENGANNUR,PULIYOOR,220994,9.3040200,76.5875800,CHENGANNOOR OLT,9.321037,76.617608
KERALA,32,ALAPPUZHA,CHENGANNUR,THIRUVANVANDUR,220995,9.3430657,76.5784280,CHENGANNOOR OLT,9.321037,76.617608
KERALA,32,ALAPPUZHA,CHENGANNUR,VENMONY,220996,9.2460200,76.6145700,CHENGANNOOR OLT,9.321037,76.617608
KERALA,32,ALAPPUZHA,HARIPPAD,CHERUTHANA,220997,9.3022300,76.4447200,HARIPPAD EXCHANGE,9.280833,76.458600
KERALA,32,ALAPPUZHA,HARIPPAD,HARIPPAD,220999,9.2819997,76.4542502,HARIPPAD EXCHANGE,9.280833,76.458600
KERALA,32,ALAPPUZHA,HARIPPAD,KARTHIKAPPALLY,221000,9.2613100,76.4497000,HARIPPAD EXCHANGE,9.280833,76.458600
KERALA,32,ALAPPUZHA,HARIPPAD,KARUVATTA,221001,9.3153400,76.4279300,HARIPPAD EXCHANGE,9.280833,76.458600
KERALA,32,ALAPPUZHA,HARIPPAD,KUMARAPURAM,221002,9.2835300,76.4399900,HARIPPAD EXCHANGE,9.280833,76.458600
KERALA,32,ALAPPUZHA,HARIPPAD,PALLIPPAD,221003,9.2795900,76.4780800,HARIPPAD EXCHANGE,9.280833,76.458600
KERALA,32,ALAPPUZHA,HARIPPAD,THRIKKUNNAPUZHA,221004,9.2591600,76.4101300,HARIPPAD EXCHANGE,9.280833,76.458600
KERALA,32,ALAPPUZHA,HARIPPAD,VEEYAPURAM,221005,9.3198900,76.4608000,HARIPPAD EXCHANGE,9.280833,76.458600
KERALA,32,ALAPPUZHA,KANJIKKUZHY,CHERTHALA SOUTH,221006,9.6575100,76.3179900,CHERTHALA OLT,9.679814,76.340915
KERALA,32,ALAPPUZHA,KANJIKKUZHY,KADAKKARAPPALLY,221024,9.7034900,76.3139200,CHERTHALA OLT,9.679814,76.340915
KERALA,32,ALAPPUZHA,KANJIKKUZHY,KANJIKUZHI,221007,9.6221100,76.3426400,CHERTHALA OLT,9.679814,76.340915
KERALA,32,ALAPPUZHA,KANJIKKUZHY,MARARIKKULAM NORTH,221008,9.6116317,76.3295846,CHERTHALA OLT,9.679814,76.340915
KERALA,32,ALAPPUZHA,KANJIKKUZHY,THANNEERMUKKAM,221010,9.6760900,76.3924500,CHERTHALA OLT,9.679814,76.340915
KERALA,32,ALAPPUZHA,MAVELIKKARA,CHENNITHALA THRIPERUMTHARA,221011,9.2805400,76.5263100,MAVELIKKARA OLT,9.247509,76.546497
KERALA,32,ALAPPUZHA,MAVELIKKARA,CHETTIKULANGARA,221012,9.2288700,76.5172500,MAVELIKKARA OLT,9.247509,76.546497
KERALA,32,ALAPPUZHA,MAVELIKKARA,MANNAR,220991,9.3110300,76.5390200,MAVELIKKARA OLT,9.247509,76.546497
KERALA,32,ALAPPUZHA,MAVELIKKARA,MAVELIKKARA THEKKEKARA,221013,9.2180700,76.5511900,MAVELIKKARA OLT,9.247509,76.546497
KERALA,32,ALAPPUZHA,MAVELIKKARA,THAZHAKKARA,221014,9.2363100,76.5884200,MAVELIKKARA OLT,9.247509,76.546497
KERALA,32,ALAPPUZHA,MUTHUKULAM,ARATTUPUZHA,221015,9.2017200,76.4361900,KAYAMKULAM OLT,9.172260,76.505581
KERALA,32,ALAPPUZHA,MUTHUKULAM,CHEPPAD,221016,9.2411700,76.4698900,KAYAMKULAM OLT,9.172260,76.505581
KERALA,32,ALAPPUZHA,MUTHUKULAM,CHINGOLI,220998,9.2484900,76.4518900,KAYAMKULAM OLT,9.172260,76.505581
KERALA,32,ALAPPUZHA,MUTHUKULAM,DEVIKULANGARA,221017,9.1481500,76.4967700,KAYAMKULAM OLT,9.172260,76.505581
KERALA,32,ALAPPUZHA,MUTHUKULAM,KANDALLOOR,221018,9.1771800,76.4852100,KAYAMKULAM OLT,9.172260,76.505581
KERALA,32,ALAPPUZHA,MUTHUKULAM,KRISHNAPURAM,221019,9.1515000,76.5243800,KAYAMKULAM OLT,9.172260,76.505581
KERALA,32,ALAPPUZHA,MUTHUKULAM,MUTHUKULAM,221020,9.2152400,76.4592400,KAYAMKULAM OLT,9.172260,76.505581
KERALA,32,ALAPPUZHA,MUTHUKULAM,PATHIYOOR,221021,9.2099700,76.4956300,KAYAMKULAM OLT,9.172260,76.505581
KERALA,32,ALAPPUZHA,PATTANAKKAD,AROOR,221022,9.8663400,76.3051800,CHERTHALA OLT,9.679814,76.340915
KERALA,32,ALAPPUZHA,PATTANAKKAD,EZHUPUNNA,221023,9.8233900,76.3051800,CHERTHALA OLT,9.679814,76.340915
KERALA,32,ALAPPUZHA,PATTANAKKAD,KODAMTHURUTHU,221025,9.7965600,76.3159300,CHERTHALA OLT,9.679814,76.340915
KERALA,32,ALAPPUZHA,PATTANAKKAD,KUTHIATHODU,221026,9.7834997,76.3173552,CHERTHALA OLT,9.679814,76.340915
KERALA,32,ALAPPUZHA,PATTANAKKAD,PATTANAKKAD,221027,9.7324000,76.3186200,CHERTHALA OLT,9.679814,76.340915
KERALA,32,ALAPPUZHA,PATTANAKKAD,THURAVOOR,221028,9.7572200,76.3182500,CHERTHALA OLT,9.679814,76.340915
KERALA,32,ALAPPUZHA,PATTANAKKAD,VAYALAR,221029,9.7221139,76.3401908,CHERTHALA OLT,9.679814,76.340915
KERALA,32,ALAPPUZHA,THYCATTUSSERY,AROOKUTTY,221030,9.8647300,76.3240700,PANAVALLY XGE,9.816740,76.350360
KERALA,32,ALAPPUZHA,THYCATTUSSERY,CHENNAMPALIPPURAM,221031,9.7411000,76.3628300,PANAVALLY XGE,9.816740,76.350360
KERALA,32,ALAPPUZHA,THYCATTUSSERY,PANAVALLY,221032,9.8162300,76.3513200,PANAVALLY XGE,9.816740,76.350360
KERALA,32,ALAPPUZHA,THYCATTUSSERY,PERUMBALAM,221033,9.8424700,76.3592200,PANAVALLY XGE,9.816740,76.350360
KERALA,32,ALAPPUZHA,THYCATTUSSERY,THAICATTUSSERY,221034,9.7734400,76.3424200,PANAVALLY XGE,9.816740,76.350360
KERALA,32,ALAPPUZHA,VELIYANAD,KAVALAM,221035,9.4725570,76.4609060,PULICUNNU EXCH,9.435605,76.447390
KERALA,32,ALAPPUZHA,VELIYANAD,MUTTAR,221036,9.4009190,76.4995430,PULICUNNU EXCH,9.435605,76.447390
KERALA,32,ALAPPUZHA,VELIYANAD,NEELAMPEROOR,221037,9.4909680,76.4973360,PULICUNNU EXCH,9.435605,76.447390
KERALA,32,ALAPPUZHA,VELIYANAD,PULINKUNNU,221038,9.4487041,76.4472179,PULICUNNU EXCH,9.435605,76.447390
KERALA,32,ALAPPUZHA,VELIYANAD,RAMANKARI,221039,9.4236340,76.4662080,PULICUNNU EXCH,9.435605,76.447390
KERALA,32,ALAPPUZHA,VELIYANAD,VELIYANAD,221040,9.4248940,76.4887820,PULICUNNU EXCH,9.435605,76.447390
KERALA,32,ERNAKULAM,ALANGAD,ALANGAD,221041,10.1181100,76.2852200,ALUVA TELE EXGE,10.104386,76.355876
KERALA,32,ERNAKULAM,ALANGAD,KADUNGALLUR,221043,10.0959040,76.3179630,ALUVA TELE EXGE,10.104386,76.355876
KERALA,32,ERNAKULAM,ALANGAD,KARUMALLOOR,221042,10.1298500,76.2931300,ALUVA TELE EXGE,10.104386,76.355876
KERALA,32,ERNAKULAM,ALANGAD,VARAPUZHA,221044,10.0751200,76.2709300,ALUVA TELE EXGE,10.104386,76.355876
KERALA,32,ERNAKULAM,ANGAMALI,AYYAMPUZHA,221045,10.2525641,76.4771122,ANKAMALY TE,10.187173,76.383307
KERALA,32,ERNAKULAM,ANGAMALI,KALADY,221046,10.1672139,76.4360492,ANKAMALY TE,10.187173,76.383307
KERALA,32,ERNAKULAM,ANGAMALI,KANJOOR,221047,10.1455654,76.4260489,ANKAMALY TE,10.187173,76.383307
KERALA,32,ERNAKULAM,ANGAMALI,KARUKUTTY,221048,10.2250451,76.3759560,ANKAMALY TE,10.187173,76.383307
KERALA,32,ERNAKULAM,ANGAMALI,MALAYATTOOR NEELESWARAM,221049,10.1855633,76.4755515,ANKAMALY TE,10.187173,76.383307
KERALA,32,ERNAKULAM,ANGAMALI,MANJAPRA,221050,10.2047781,76.4521093,ANKAMALY TE,10.187173,76.383307
KERALA,32,ERNAKULAM,ANGAMALI,MOOKKANNUR,221051,10.2190927,76.4127418,ANKAMALY TE,10.187173,76.383307
KERALA,32,ERNAKULAM,ANGAMALI,THURAVOOR,221053,10.2053770,76.4221403,ANKAMALY TE,10.187173,76.383307
KERALA,32,ERNAKULAM,EDAPPALLY,CHERANALLUR,221054,10.0403460,76.2797660,BOAT JETTY TE,9.973126,76.279795
KERALA,32,ERNAKULAM,EDAPPALLY,ELAMKUNNAPUZHA,221118,10.0183542,76.2255971,BOAT JETTY TE,9.973126,76.279795
KERALA,32,ERNAKULAM,EDAPPALLY,KADAMAKKUDY,221055,10.0526610,76.2611280,BOAT JETTY TE,9.973126,76.279795
KERALA,32,ERNAKULAM,EDAPPALLY,MULAVUKAD,221120,10.0244850,76.2570680,BOAT JETTY TE,9.973126,76.279795
KERALA,32,ERNAKULAM,KOOVAPPADY,ASAMANNOOR,221056,10.0946000,76.5564900,PERUMBAVOOR TE,10.115314,76.476915
KERALA,32,ERNAKULAM,KOOVAPPADY,KOOVAPPADY,221057,10.1530420,76.4821820,PERUMBAVOOR TE,10.115314,76.476915
KERALA,32,ERNAKULAM,KOOVAPPADY,MUDAKUZHA,221058,10.1310750,76.5290390,PERUMBAVOOR TE,10.115314,76.476915
KERALA,32,ERNAKULAM,KOOVAPPADY,OKKAL,221059,10.1538000,76.4533000,PERUMBAVOOR TE,10.115314,76.476915
KERALA,32,ERNAKULAM,KOOVAPPADY,RAYAMANGALAM,221060,10.0850600,76.5195910,PERUMBAVOOR TE,10.115314,76.476915
KERALA,32,ERNAKULAM,KOOVAPPADY,VENGOOR,221061,10.1459030,76.5405490,PERUMBAVOOR TE,10.115314,76.476915
KERALA,32,ERNAKULAM,KOTHAMANGALAM,KAVALANGAD,221062,10.0583333,76.6822222,CHELAD TE,10.099399,76.646828
KERALA,32,ERNAKULAM,KOTHAMANGALAM,KEERAMPARA,221063,10.1069444,76.6705556,CHELAD TE,10.099399,76.646828
KERALA,32,ERNAKULAM,KOTHAMANGALAM,KOTTAPPADY,221064,10.1175000,76.5897222,CHELAD TE,10.099399,76.646828
KERALA,32,ERNAKULAM,KOTHAMANGALAM,KUTTAMPUZHA,221065,10.1513889,76.7355556,CHELAD TE,10.099399,76.646828
KERALA,32,ERNAKULAM,KOTHAMANGALAM,NELLIKKUZHI,221066,10.0775000,76.5902778,CHELAD TE,10.099399,76.646828
KERALA,32,ERNAKULAM,KOTHAMANGALAM,PAINGOTTUR,221067,10.0050000,76.7102778,CHELAD TE,10.099399,76.646828
KERALA,32,ERNAKULAM,KOTHAMANGALAM,PALLARIMANGALAM,221068,10.0302778,76.6816667,CHELAD TE,10.099399,76.646828
KERALA,32,ERNAKULAM,KOTHAMANGALAM,PINDIMANA,221069,10.1050000,76.6236111,CHELAD TE,10.099399,76.646828
KERALA,32,ERNAKULAM,KOTHAMANGALAM,POTHANIKKAD,221070,10.0102778,76.6808333,CHELAD TE,10.099399,76.646828
KERALA,32,ERNAKULAM,KOTHAMANGALAM,VARAPPETTY,221071,10.0280556,76.6261111,CHELAD TE,10.099399,76.646828
KERALA,32,ERNAKULAM,MULANTHURUTHY,AMBALLUR,221072,9.8589380,76.4021650,MULANTHURUTHY XGE,9.898233,76.383600
KERALA,32,ERNAKULAM,MULANTHURUTHY,CHOTTANIKKARA,221073,9.9286370,76.3906330,MULANTHURUTHY XGE,9.898233,76.383600
KERALA,32,ERNAKULAM,MULANTHURUTHY,EDAKKATTUVAYAL,221074,9.8664700,76.4367110,MULANTHURUTHY XGE,9.898233,76.383600
KERALA,32,ERNAKULAM,MULANTHURUTHY,MANEED,221089,9.9054080,76.4579430,MULANTHURUTHY XGE,9.898233,76.383600
KERALA,32,ERNAKULAM,MULANTHURUTHY,MULUMTHURUTHY,221075,9.9010830,76.3902910,MULANTHURUTHY XGE,9.898233,76.383600
KERALA,32,ERNAKULAM,MULANTHURUTHY,UDAYAMPERUR,221076,9.8975650,76.3692460,MULANTHURUTHY XGE,9.898233,76.383600
KERALA,32,ERNAKULAM,MUVATTUPUZHA,ARAKUZHA,221077,9.9324618,76.5992137,MUVATTUPUZHA TE,9.984065,76.577315
KERALA,32,ERNAKULAM,MUVATTUPUZHA,AVOLY,221078,9.9578112,76.6247669,MUVATTUPUZHA TE,9.984065,76.577315
KERALA,32,ERNAKULAM,MUVATTUPUZHA,AYAVANA,221079,9.9853237,76.6379864,MUVATTUPUZHA TE,9.984065,76.577315
KERALA,32,ERNAKULAM,MUVATTUPUZHA,KALLOORKKAD,221080,9.9701412,76.6719123,MUVATTUPUZHA TE,9.984065,76.577315
KERALA,32,ERNAKULAM,MUVATTUPUZHA,MANJALLOOR,221081,9.9442567,76.6410888,MUVATTUPUZHA TE,9.984065,76.577315
KERALA,32,ERNAKULAM,MUVATTUPUZHA,MARADY,221082,9.9558189,76.5601902,MUVATTUPUZHA TE,9.984065,76.577315
KERALA,32,ERNAKULAM,MUVATTUPUZHA,PAIPRA,221083,10.0210000,76.5614700,MUVATTUPUZHA TE,9.984065,76.577315
KERALA,32,ERNAKULAM,MUVATTUPUZHA,VALAKOM,221084,9.9799463,76.5407371,MUVATTUPUZHA TE,9.984065,76.577315
KERALA,32,ERNAKULAM,PALLURUTHY,CHELLANAM,221085,9.8555050,76.2675600,EDACOCHI T.E,9.908443,76.293984
KERALA,32,ERNAKULAM,PALLURUTHY,KUMBALAM,221124,9.9042910,76.3212630,EDACOCHI T.E,9.908443,76.293984
KERALA,32,ERNAKULAM,PALLURUTHY,KUMBALANGY,221086,9.8879230,76.2855000,EDACOCHI T.E,9.908443,76.293984
KERALA,32,ERNAKULAM,PAMPAKUDA,ELANJI,221087,9.8312000,76.5405800,PAMPAKUDA TE,9.920311,76.520611
KERALA,32,ERNAKULAM,PAMPAKUDA,Koothattukulam,221088,9.8619000,76.5958200,PAMPAKUDA TE,9.920311,76.520611
KERALA,32,ERNAKULAM,PAMPAKUDA,PALAKUZHA,221090,9.8814000,76.6066700,PAMPAKUDA TE,9.920311,76.520611
KERALA,32,ERNAKULAM,PAMPAKUDA,PAMPAKUDA,221091,9.9189000,76.5209700,PAMPAKUDA TE,9.920311,76.520611
KERALA,32,ERNAKULAM,PAMPAKUDA,Piravom,221092,9.8776000,76.4851400,PAMPAKUDA TE,9.920311,76.520611
KERALA,32,ERNAKULAM,PAMPAKUDA,RAMAMANGALAM,221093,9.9428000,76.4816200,PAMPAKUDA TE,9.920311,76.520611
KERALA,32,ERNAKULAM,PAMPAKUDA,THIRUMARADY,221094,9.8878000,76.5540700,PAMPAKUDA TE,9.920311,76.520611
KERALA,32,ERNAKULAM,PARAKKADAV,CHENGAMANAD,221095,10.0888040,76.3431750,CHENGAMANAD TE,10.153958,76.341787
KERALA,32,ERNAKULAM,PARAKKADAV,KUNNUKARA,221096,10.1556780,76.2955630,CHENGAMANAD TE,10.153958,76.341787
KERALA,32,ERNAKULAM,PARAKKADAV,NEDUMBASSERY,221097,10.1622564,76.3691942,CHENGAMANAD TE,10.153958,76.341787
KERALA,32,ERNAKULAM,PARAKKADAV,PARAKKADAVU,221098,10.1883340,76.3282230,CHENGAMANAD TE,10.153958,76.341787
KERALA,32,ERNAKULAM,PARAKKADAV,PUTHENVELIKKARA,221099,10.1859500,76.2460280,CHENGAMANAD TE,10.153958,76.341787
KERALA,32,ERNAKULAM,PARAKKADAV,SREEMOOLANAGARAM,221052,10.1356630,76.4065970,CHENGAMANAD TE,10.153958,76.341787
KERALA,32,ERNAKULAM,PARAVUR,CHENDAMANGALAM,221100,10.1748779,76.2305964,PARAVUR TE,10.149452,76.226443
KERALA,32,ERNAKULAM,PARAVUR,CHITTATTUKARA,221101,10.1607640,76.2134900,PARAVUR TE,10.149452,76.226443
KERALA,32,ERNAKULAM,PARAVUR,EZHIKKARA,221102,10.1150807,76.2271903,PARAVUR TE,10.149452,76.226443
KERALA,32,ERNAKULAM,PARAVUR,KOTTUVALLY,221103,10.1214918,76.2547470,PARAVUR TE,10.149452,76.226443
KERALA,32,ERNAKULAM,PARAVUR,VADAKKEKARA,221104,10.1675180,76.2124810,PARAVUR TE,10.149452,76.226443
KERALA,32,ERNAKULAM,VADAVUCODE,AIKKARANAD,221105,9.9829680,76.4763880,KOLENCHERY T.E,9.978889,76.475000
KERALA,32,ERNAKULAM,VADAVUCODE,KUNNATHUNAD,221106,10.0248920,76.4055180,KOLENCHERY T.E,9.978889,76.475000
KERALA,32,ERNAKULAM,VADAVUCODE,MAZHUVANNOOR,221107,10.0349910,76.5024090,KOLENCHERY T.E,9.978889,76.475000
KERALA,32,ERNAKULAM,VADAVUCODE,POOTHRIKKA,221108,9.9651310,76.4445880,KOLENCHERY T.E,9.978889,76.475000
KERALA,32,ERNAKULAM,VADAVUCODE,THIRUVANIYOOR,221109,9.9339950,76.4250930,KOLENCHERY T.E,9.978889,76.475000
KERALA,32,ERNAKULAM,VADAVUCODE,VADAVUCODE PUTHEN CRUZ,221110,9.9763740,76.4187530,KOLENCHERY T.E,9.978889,76.475000
KERALA,32,ERNAKULAM,VAZHAKKULAM,CHOORNIKKARA,221111,10.0888041,76.3443176,ALUVA TELE EXGE,10.104386,76.355876
KERALA,32,ERNAKULAM,VAZHAKKULAM,EDATHALA,221112,10.0728470,76.3809930,ALUVA TELE EXGE,10.104386,76.355876
KERALA,32,ERNAKULAM,VAZHAKKULAM,KEEZHMAD,221113,10.1030220,76.3877250,ALUVA TELE EXGE,10.104386,76.355876
KERALA,32,ERNAKULAM,VAZHAKKULAM,KIZHAKKAMBALAM,221114,10.0350720,76.4082600,ALUVA TELE EXGE,10.104386,76.355876
KERALA,32,ERNAKULAM,VAZHAKKULAM,VAZHAKKULAM,221115,10.1151810,76.4301410,ALUVA TELE EXGE,10.104386,76.355876
KERALA,32,ERNAKULAM,VAZHAKKULAM,VENGOLA,221116,10.0799140,76.4663080,ALUVA TELE EXGE,10.104386,76.355876
KERALA,32,ERNAKULAM,VYPEEN,EDAVANAKKAD,221117,10.0945371,76.2067495,CHERAI TE,10.138645,76.195539
KERALA,32,ERNAKULAM,VYPEEN,KUZHUPPILLY,221119,10.1120770,76.2019822,CHERAI TE,10.138645,76.195539
KERALA,32,ERNAKULAM,VYPEEN,NAYARAMBALAM,221121,10.0607266,76.2138949,CHERAI TE,10.138645,76.195539
KERALA,32,ERNAKULAM,VYPEEN,NJARAKKAL,221122,10.0439515,76.2178874,CHERAI TE,10.138645,76.195539
KERALA,32,ERNAKULAM,VYPEEN,PALLIPPURAM,221123,10.1390020,76.1950040,CHERAI TE,10.138645,76.195539
KERALA,32,IDUKKI,ADIMALY,ADIMALY,221127,10.0093610,76.9580710,ADIMALY TE,10.010471,76.954861
KERALA,32,IDUKKI,ADIMALY,BISONVALLEY,221125,10.0096510,77.0835610,ADIMALY TE,10.010471,76.954861
KERALA,32,IDUKKI,ADIMALY,KONNATHADY,221126,9.9575310,77.0290810,ADIMALY TE,10.010471,76.954861
KERALA,32,IDUKKI,ADIMALY,PALLIVASAL,221128,10.0091820,77.0365310,ADIMALY TE,10.010471,76.954861
KERALA,32,IDUKKI,ADIMALY,VELLATHOOVAL,221129,9.9771810,77.0274820,ADIMALY TE,10.010471,76.954861
KERALA,32,IDUKKI,AZHUTHA,ELAPPARA,221130,9.6309610,76.9787890,PEERUMEDU TE,9.571591,76.994069
KERALA,32,IDUKKI,AZHUTHA,KOKKAYAR,221131,9.5757390,76.8938090,PEERUMEDU TE,9.571591,76.994069
KERALA,32,IDUKKI,AZHUTHA,KUMALY,221132,9.6054090,77.1652610,PEERUMEDU TE,9.571591,76.994069
KERALA,32,IDUKKI,AZHUTHA,PEERUMEDU,221133,9.5731510,76.9920010,PEERUMEDU TE,9.571591,76.994069
KERALA,32,IDUKKI,AZHUTHA,PERUVANTHANAM,221134,9.5535210,76.9254890,PEERUMEDU TE,9.571591,76.994069
KERALA,32,IDUKKI,AZHUTHA,VANDIPERIYAR,221135,9.5714010,77.0895310,PEERUMEDU TE,9.571591,76.994069
KERALA,32,IDUKKI,DEVIKULAM,CHINNAKANAL,221136,10.0406410,77.1726810,MARAYOOR TE,10.278609,77.169491
KERALA,32,IDUKKI,DEVIKULAM,DEVIKULAM,238327,10.1050610,77.1270110,MARAYOOR TE,10.278609,77.169491
KERALA,32,IDUKKI,DEVIKULAM,Edamalakkudy,276898,10.1991500,76.9595790,MARAYOOR TE,10.278609,77.169491
KERALA,32,IDUKKI,DEVIKULAM,KANTHALLOOR,221137,10.2152910,77.1949090,MARAYOOR TE,10.278609,77.169491
KERALA,32,IDUKKI,DEVIKULAM,MANKULAM,221138,10.1260010,76.9250010,MARAYOOR TE,10.278609,77.169491
KERALA,32,IDUKKI,DEVIKULAM,MARAYOOR,221139,10.2765310,77.1626210,MARAYOOR TE,10.278609,77.169491
KERALA,32,IDUKKI,DEVIKULAM,MUNNAR,221140,10.0853710,77.0592610,MARAYOOR TE,10.278609,77.169491
KERALA,32,IDUKKI,DEVIKULAM,SANTHANPARA,221141,9.9653210,77.0592610,MARAYOOR TE,10.278609,77.169491
KERALA,32,IDUKKI,DEVIKULAM,VATTAVADA,221142,10.1839010,77.2592010,MARAYOOR TE,10.278609,77.169491
KERALA,32,IDUKKI,ELEMDESAM,ALAKKODE,221143,9.8824310,76.7651910,KARIMANNOOR TE,9.918647,76.782803
KERALA,32,IDUKKI,ELEMDESAM,KARIMANNOOR,221144,9.9208010,76.7783390,KARIMANNOOR TE,9.918647,76.782803
KERALA,32,IDUKKI,ELEMDESAM,KODIKULAM,221145,9.9481310,76.7650510,KARIMANNOOR TE,9.918647,76.782803
KERALA,32,IDUKKI,ELEMDESAM,KUDAYATHOOR,221146,9.8271010,76.7895010,KARIMANNOOR TE,9.918647,76.782803
KERALA,32,IDUKKI,ELEMDESAM,UDUMBANOOR,221147,9.9061010,76.8135510,KARIMANNOOR TE,9.918647,76.782803
KERALA,32,IDUKKI,ELEMDESAM,VANNAPURAM,221148,9.9879310,76.7897510,KARIMANNOOR TE,9.918647,76.782803
KERALA,32,IDUKKI,ELEMDESAM,VELLIYAMATTOM,221149,9.8479710,76.8286410,KARIMANNOOR TE,9.918647,76.782803
KERALA,32,IDUKKI,IDUKKI,ARAKULAM,221150,9.7912110,76.8521610,IDUKKI TE,9.855758,76.937525
KERALA,32,IDUKKI,IDUKKI,IDUKKI - KANJIKUZHY,221151,9.9525410,76.9340010,IDUKKI TE,9.855758,76.937525
KERALA,32,IDUKKI,IDUKKI,KAMAKSHY,221152,9.8397610,77.0346710,IDUKKI TE,9.855758,76.937525
KERALA,32,IDUKKI,IDUKKI,MARIYAPURAM,221153,9.8565090,76.9877710,IDUKKI TE,9.855758,76.937525
KERALA,32,IDUKKI,IDUKKI,VATHIKUDY,221154,9.9140910,77.0082510,IDUKKI TE,9.855758,76.937525
KERALA,32,IDUKKI,IDUKKI,VAZHATHOPE,221155,9.8744710,76.9591610,IDUKKI TE,9.855758,76.937525
KERALA,32,IDUKKI,KATTAPPANA,AYYAPPANCOIL,221156,9.7543100,77.1158300,KATTAPANA  TE,9.760778,77.115250
KERALA,32,IDUKKI,KATTAPPANA,CHAKKUPALLAM,221157,9.6645610,77.1574710,KATTAPANA  TE,9.760778,77.115250
KERALA,32,IDUKKI,KATTAPPANA,ERATTAYAR,221158,9.7949410,77.1075810,KATTAPANA  TE,9.760778,77.115250
KERALA,32,IDUKKI,KATTAPPANA,KANCHIYAR,221159,9.7385310,77.0622310,KATTAPANA  TE,9.760778,77.115250
KERALA,32,IDUKKI,KATTAPPANA,Kattappana,221160,9.7543110,77.1158290,KATTAPANA  TE,9.760778,77.115250
KERALA,32,IDUKKI,KATTAPPANA,UPPUTHARA,221161,9.6994710,77.0210910,KATTAPANA  TE,9.760778,77.115250
KERALA,32,IDUKKI,KATTAPPANA,VANDENMEDU,221162,9.7228890,77.1231210,KATTAPANA  TE,9.760778,77.115250
KERALA,32,IDUKKI,NEDUMKANDOM,KARUNAPURAM,221163,9.7802120,77.2065810,CHEMMANAR TE,9.924849,77.157240
KERALA,32,IDUKKI,NEDUMKANDOM,NEDUMKANDAM,221164,9.8342225,77.1590980,CHEMMANAR TE,9.924849,77.157240
KERALA,32,IDUKKI,NEDUMKANDOM,PAMPADUMPARA,221165,9.7994010,77.1612810,CHEMMANAR TE,9.924849,77.157240
KERALA,32,IDUKKI,NEDUMKANDOM,RAJAKKAD,221166,9.9611910,77.0969120,CHEMMANAR TE,9.924849,77.157240
KERALA,32,IDUKKI,NEDUMKANDOM,RAJAKUMARI,221167,9.9686410,77.1527110,CHEMMANAR TE,9.924849,77.157240
KERALA,32,IDUKKI,NEDUMKANDOM,SENAPATHY,221168,9.9500420,77.1801510,CHEMMANAR TE,9.924849,77.157240
KERALA,32,IDUKKI,NEDUMKANDOM,UDUMBANCHOLA,221169,9.8998010,77.1779130,CHEMMANAR TE,9.924849,77.157240
KERALA,32,IDUKKI,THODUPUZHA,EDAVETTY,221170,9.8933890,76.7452610,THODUPUZHA TE,9.899369,76.715553
KERALA,32,IDUKKI,THODUPUZHA,KARIMKUNNAM,221171,9.8529260,76.6864220,THODUPUZHA TE,9.899369,76.715553
KERALA,32,IDUKKI,THODUPUZHA,KUMARAMANGALAM,221172,9.9375010,76.7084710,THODUPUZHA TE,9.899369,76.715553
KERALA,32,IDUKKI,THODUPUZHA,MANAKKAD,221173,9.9101290,76.6761010,THODUPUZHA TE,9.899369,76.715553
KERALA,32,IDUKKI,THODUPUZHA,MUTTOM,221174,9.8395590,76.7460610,THODUPUZHA TE,9.899369,76.715553
KERALA,32,IDUKKI,THODUPUZHA,PURAPUZHA,221175,9.8829710,76.6423010,THODUPUZHA TE,9.899369,76.715553
KERALA,32,KANNUR,EDAKKAD,CHELORA,221177,11.8998300,75.4308900,CHOVVA EXCHANGE,11.873056,75.396389
KERALA,32,KANNUR,EDAKKAD,CHEMBILODE,221178,11.8772300,75.4568700,CHOVVA EXCHANGE,11.873056,75.396389
KERALA,32,KANNUR,EDAKKAD,EDAKKAD,221179,11.8458700,75.4169400,CHOVVA EXCHANGE,11.873056,75.396389
KERALA,32,KANNUR,EDAKKAD,ELAYAVOOR,221180,11.8863800,75.4037000,CHOVVA EXCHANGE,11.873056,75.396389
KERALA,32,KANNUR,EDAKKAD,KADAMBOOR,221181,11.8344000,75.4529600,CHOVVA EXCHANGE,11.873056,75.396389
KERALA,32,KANNUR,EDAKKAD,KOLACHERRY,221187,11.9723300,75.4093800,CHOVVA EXCHANGE,11.873056,75.396389
KERALA,32,KANNUR,EDAKKAD,MUNDERI,221182,11.9122600,75.4554600,CHOVVA EXCHANGE,11.873056,75.396389
KERALA,32,KANNUR,EDAKKAD,PERALASSERI,221184,11.8325700,75.4833500,CHOVVA EXCHANGE,11.873056,75.396389
KERALA,32,KANNUR,IRIKKUR,ERUVESSEY,221185,12.0950100,75.5465200,IRITTY EXCH,11.991066,75.673407
KERALA,32,KANNUR,IRIKKUR,IRIKKUR,221186,11.9849092,75.5507565,IRITTY EXCH,11.991066,75.673407
KERALA,32,KANNUR,IRIKKUR,KUTTIATTOR,221188,11.9588170,75.4741830,IRITTY EXCH,11.991066,75.673407
KERALA,32,KANNUR,IRIKKUR,MALAPATTOM,221189,12.0187600,75.4878800,IRITTY EXCH,11.991066,75.673407
KERALA,32,KANNUR,IRIKKUR,MAYYIL,221190,11.9926400,75.4513100,IRITTY EXCH,11.991066,75.673407
KERALA,32,KANNUR,IRIKKUR,PADIYUR,221191,11.9983700,75.6280200,IRITTY EXCH,11.991066,75.673407
KERALA,32,KANNUR,IRIKKUR,PAYYAVOOR,221192,12.0606800,75.5812400,IRITTY EXCH,11.991066,75.673407
KERALA,32,KANNUR,IRIKKUR,SREEKANDAPURAM,221193,12.0445000,75.5085600,IRITTY EXCH,11.991066,75.673407
KERALA,32,KANNUR,IRIKKUR,ULIKKAL,221194,12.0375400,75.6653500,IRITTY EXCH,11.991066,75.673407
KERALA,32,KANNUR,IRITTY,ARALAM,221195,11.9967600,75.7264300,IRITTY EXCH,11.991066,75.673407
KERALA,32,KANNUR,IRITTY,AYYANKUNNU,221196,12.0323600,75.7451200,IRITTY EXCH,11.991066,75.673407
KERALA,32,KANNUR,IRITTY,KEEZHALLUR,221197,11.9283400,75.5273100,IRITTY EXCH,11.991066,75.673407
KERALA,32,KANNUR,IRITTY,KEEZHUR - CHAVASSERI,221198,11.9641300,75.6555300,IRITTY EXCH,11.991066,75.673407
KERALA,32,KANNUR,IRITTY,KOODALI,221199,11.9412300,75.5050000,IRITTY EXCH,11.991066,75.673407
KERALA,32,KANNUR,IRITTY,PAYAM,221200,12.0028600,75.6895600,IRITTY EXCH,11.991066,75.673407
KERALA,32,KANNUR,IRITTY,THILLANKERI,221201,11.9286000,75.6601000,IRITTY EXCH,11.991066,75.673407
KERALA,32,KANNUR,KALLIASSERI,CHERUKUNNU,221238,11.9964600,75.2944100,PAYANGADI EXCH,12.019813,75.263475
KERALA,32,KANNUR,KALLIASSERI,CHERUTHAZHAM,221217,12.0712300,75.2596200,PAYANGADI EXCH,12.019813,75.263475
KERALA,32,KANNUR,KALLIASSERI,EZHOME,221219,12.0382100,75.2929300,PAYANGADI EXCH,12.019813,75.263475
KERALA,32,KANNUR,KALLIASSERI,KALLIASSERY,221239,11.9702500,75.3616600,PAYANGADI EXCH,12.019813,75.263475
KERALA,32,KANNUR,KALLIASSERI,KANNAPURAM,221240,11.9859400,75.3117700,PAYANGADI EXCH,12.019813,75.263475
KERALA,32,KANNUR,KALLIASSERI,MADAYI,221224,12.0243500,75.2667800,PAYANGADI EXCH,12.019813,75.263475
KERALA,32,KANNUR,KALLIASSERI,MATTOOL,221225,11.9735600,75.2857300,PAYANGADI EXCH,12.019813,75.263475
KERALA,32,KANNUR,KALLIASSERI,NARATH,221243,11.9399700,75.3954500,PAYANGADI EXCH,12.019813,75.263475
KERALA,32,KANNUR,KANNUR,AZHIKODE,221202,11.9203900,75.3360150,VALAPATTANAM EXCHANGE,11.927705,75.347245
KERALA,32,KANNUR,KANNUR,CHIRAKKAL,221203,11.9137200,75.3584000,VALAPATTANAM EXCHANGE,11.927705,75.347245
KERALA,32,KANNUR,KANNUR,PALLIKKUNNU,221204,11.8892100,75.3615200,VALAPATTANAM EXCHANGE,11.927705,75.347245
KERALA,32,KANNUR,KANNUR,PAPPINISSERI,221244,11.9482200,75.3548350,VALAPATTANAM EXCHANGE,11.927705,75.347245
KERALA,32,KANNUR,KANNUR,PUZHATHI,221205,11.8965200,75.3846900,VALAPATTANAM EXCHANGE,11.927705,75.347245
KERALA,32,KANNUR,KANNUR,VALAPATTANAM,221206,11.9281300,75.3470300,VALAPATTANAM EXCHANGE,11.927705,75.347245
KERALA,32,KANNUR,KUTHUPARAMBA,CHITTARIPARAMBA,221207,11.8461000,75.6433400,KUTHUPARAMBA EXCHANGE,11.831927,75.566598
KERALA,32,KANNUR,KUTHUPARAMBA,KOTTAYAM,221253,11.8085600,75.5499400,KUTHUPARAMBA EXCHANGE,11.831927,75.566598
KERALA,32,KANNUR,KUTHUPARAMBA,KUNNATHUPARAMBA,221208,11.7556200,75.6134600,KUTHUPARAMBA EXCHANGE,11.831927,75.566598
KERALA,32,KANNUR,KUTHUPARAMBA,MANGATTIDOM,221209,11.8616400,75.5625500,KUTHUPARAMBA EXCHANGE,11.831927,75.566598
KERALA,32,KANNUR,KUTHUPARAMBA,PATTIAM,221213,11.7991200,75.5627600,KUTHUPARAMBA EXCHANGE,11.831927,75.566598
KERALA,32,KANNUR,KUTHUPARAMBA,TRIPPANGOTTUR,221214,11.7492600,75.6292500,KUTHUPARAMBA EXCHANGE,11.831927,75.566598
KERALA,32,KANNUR,PANOOR,CHOKLI,221248,11.7287900,75.5529000,KUTHUPARAMBA EXCHANGE,11.831927,75.566598
KERALA,32,KANNUR,PANOOR,KADIRUR,221251,11.7857800,75.5326900,KUTHUPARAMBA EXCHANGE,11.831927,75.566598
KERALA,32,KANNUR,PANOOR,KARIYAD,221252,11.6970800,75.5831900,KUTHUPARAMBA EXCHANGE,11.831927,75.566598
KERALA,32,KANNUR,PANOOR,MOKERI,221210,11.7840600,75.5706500,KUTHUPARAMBA EXCHANGE,11.831927,75.566598
KERALA,32,KANNUR,PANOOR,PANNIYANNUR,221211,11.7520100,75.5545600,KUTHUPARAMBA EXCHANGE,11.831927,75.566598
KERALA,32,KANNUR,PANOOR,PANOOR,221212,11.7594000,75.5801800,KUTHUPARAMBA EXCHANGE,11.831927,75.566598
KERALA,32,KANNUR,PANOOR,PERINGALAM,221255,11.7282600,75.5929200,KUTHUPARAMBA EXCHANGE,11.831927,75.566598
KERALA,32,KANNUR,PAYYANNUR,CHERUPUZHA,221216,12.2745200,75.3642700,PAYYANNUR EXCH,12.113371,75.211376
KERALA,32,KANNUR,PAYYANNUR,ERAMAM -KUTTOOR,221218,12.1336600,75.3002500,PAYYANNUR EXCH,12.113371,75.211376
KERALA,32,KANNUR,PAYYANNUR,KANKOLE- ALAPADAMBA,221221,12.1786000,75.2473900,PAYYANNUR EXCH,12.113371,75.211376
KERALA,32,KANNUR,PAYYANNUR,KARIVELLUR -PERALAM,221222,12.1734300,75.1936300,PAYYANNUR EXCH,12.113371,75.211376
KERALA,32,KANNUR,PAYYANNUR,KUNHIMANGALAM,221223,12.0796500,75.2401700,PAYYANNUR EXCH,12.113371,75.211376
KERALA,32,KANNUR,PAYYANNUR,PERINGOME -VAYAKKARA,221226,12.2242500,75.3155400,PAYYANNUR EXCH,12.113371,75.211376
KERALA,32,KANNUR,PAYYANNUR,RAMANTHALI,221227,12.0603500,75.1894100,PAYYANNUR EXCH,12.113371,75.211376
KERALA,32,KANNUR,PERAVOOR,KANICHAR,221228,11.9064100,75.7850900,PERAVOOR XGE,11.893610,75.741340
KERALA,32,KANNUR,PERAVOOR,KELAKAM,221229,11.8944700,75.8093900,PERAVOOR XGE,11.893610,75.741340
KERALA,32,KANNUR,PERAVOOR,KOLAYAD,221230,11.8527200,75.6966200,PERAVOOR XGE,11.893610,75.741340
KERALA,32,KANNUR,PERAVOOR,KOTTIYOOR,221231,11.8801000,75.8473700,PERAVOOR XGE,11.893610,75.741340
KERALA,32,KANNUR,PERAVOOR,MALUR,221232,11.8924200,75.6269900,PERAVOOR XGE,11.893610,75.741340
KERALA,32,KANNUR,PERAVOOR,MUZHAKKUNNU,221233,11.9380900,75.7055400,PERAVOOR XGE,11.893610,75.741340
KERALA,32,KANNUR,PERAVOOR,PERAVOOR,221234,11.9017500,75.7339900,PERAVOOR XGE,11.893610,75.741340
KERALA,32,KANNUR,TALIPARAMBA,ALAKODE,221235,12.1984900,75.4581400,TALIPARAMBA EXCH,12.036977,75.364472
KERALA,32,KANNUR,TALIPARAMBA,CHAPPARAPADAVU,221236,12.1272100,75.4149900,TALIPARAMBA EXCH,12.036977,75.364472
KERALA,32,KANNUR,TALIPARAMBA,CHENGALAI,221237,12.0439200,75.4908000,TALIPARAMBA EXCH,12.036977,75.364472
KERALA,32,KANNUR,TALIPARAMBA,KADANNAPALLY -PANAPUZHA,221220,12.1058191,75.2866434,TALIPARAMBA EXCH,12.036977,75.364472
KERALA,32,KANNUR,TALIPARAMBA,KURUMATHUR,221241,12.0402738,75.4115991,TALIPARAMBA EXCH,12.036977,75.364472
KERALA,32,KANNUR,TALIPARAMBA,NADUVIL,221242,12.1208750,75.4820356,TALIPARAMBA EXCH,12.036977,75.364472
KERALA,32,KANNUR,TALIPARAMBA,PARIYARAM,221245,12.0688500,75.3315300,TALIPARAMBA EXCH,12.036977,75.364472
KERALA,32,KANNUR,TALIPARAMBA,PATTUVAM,221246,12.0271500,75.3265500,TALIPARAMBA EXCH,12.036977,75.364472
KERALA,32,KANNUR,TALIPARAMBA,UDAYAGIRI,221247,12.2289500,75.4813900,TALIPARAMBA EXCH,12.036977,75.364472
KERALA,32,KANNUR,THALASSERY,ANCHARAKANDY,221176,11.8862200,75.4861900,KUTHUPARAMBA EXCHANGE,11.831927,75.566598
KERALA,32,KANNUR,THALASSERY,DHARMADAM,221249,11.7750100,75.4697000,KUTHUPARAMBA EXCHANGE,11.831927,75.566598
KERALA,32,KANNUR,THALASSERY,ERANHOLI,221250,11.7747600,75.5127100,KUTHUPARAMBA EXCHANGE,11.831927,75.566598
KERALA,32,KANNUR,THALASSERY,MUZHAPPILANGAD,221183,11.8094300,75.4438000,KUTHUPARAMBA EXCHANGE,11.831927,75.566598
KERALA,32,KANNUR,THALASSERY,NEW MAHI,221254,11.7105400,75.5393500,KUTHUPARAMBA EXCHANGE,11.831927,75.566598
KERALA,32,KANNUR,THALASSERY,PINARAYI,221256,11.8085600,75.4939100,KUTHUPARAMBA EXCHANGE,11.831927,75.566598
KERALA,32,KANNUR,THALASSERY,VENGAD,221215,11.8645100,75.5096400,KUTHUPARAMBA EXCHANGE,11.831927,75.566598
KERALA,32,KASARAGOD,KANHANGAD,AJANOOR,221257,12.3399900,75.0892800,KANHANGAD EXCHANGE (OLT),12.316070,75.089980
KERALA,32,KASARAGOD,KANHANGAD,MADIKKAI,221261,12.3000400,75.1366000,KANHANGAD EXCHANGE (OLT),12.316070,75.089980
KERALA,32,KASARAGOD,KANHANGAD,PALLIKKARA,221262,12.3885600,75.0431100,KANHANGAD EXCHANGE (OLT),12.316070,75.089980
KERALA,32,KASARAGOD,KANHANGAD,PULLURPERIYA,221264,12.3825700,75.1008500,KANHANGAD EXCHANGE (OLT),12.316070,75.089980
KERALA,32,KASARAGOD,KANHANGAD,UDMA,221265,12.4275200,75.0229800,KANHANGAD EXCHANGE (OLT),12.316070,75.089980
KERALA,32,KASARAGOD,KARADKA,BEDADUKA,221266,12.4612000,75.1662800,MULLERIYA EXCH,12.546290,75.167780
KERALA,32,KASARAGOD,KARADKA,BELLOOR,221276,12.5914600,75.1744900,MULLERIYA EXCH,12.546290,75.167780
KERALA,32,KASARAGOD,KARADKA,DELAMPADY,221269,12.5541400,75.2458400,MULLERIYA EXCH,12.546290,75.167780
KERALA,32,KASARAGOD,KARADKA,KARADKA,221270,12.5490900,75.1652400,MULLERIYA EXCH,12.546290,75.167780
KERALA,32,KASARAGOD,KARADKA,KUMBADAJE,221278,12.5711000,75.1109000,MULLERIYA EXCH,12.546290,75.167780
KERALA,32,KASARAGOD,KARADKA,KUTIKKOL,221271,12.4774600,75.2117300,MULLERIYA EXCH,12.546290,75.167780
KERALA,32,KASARAGOD,KARADKA,MULIYAR,221274,12.5090300,75.0955500,MULLERIYA EXCH,12.546290,75.167780
KERALA,32,KASARAGOD,KASARGOD,BADIYADKA,221275,12.5855100,75.0741700,KASARGOD OLT,12.502830,74.989780
KERALA,32,KASARAGOD,KASARGOD,CHEMNAD,221267,12.4808900,75.0308300,KASARGOD OLT,12.502830,74.989780
KERALA,32,KASARAGOD,KASARGOD,CHENGALA,221268,12.5096300,75.0525700,KASARGOD OLT,12.502830,74.989780
KERALA,32,KASARAGOD,KASARGOD,KUMBALA,221279,12.5949700,74.9440200,KASARGOD OLT,12.502830,74.989780
KERALA,32,KASARAGOD,KASARGOD,MADHUR,221272,12.5403500,75.0003000,KASARGOD OLT,12.502830,74.989780
KERALA,32,KASARAGOD,KASARGOD,MOGRAL PUTHUR,221273,12.5396000,74.9638000,KASARGOD OLT,12.502830,74.989780
KERALA,32,KASARAGOD,MANJESHWAR,ENMAKAJE,221277,12.6464000,75.1079000,UPPALA EXCHANGE,12.670460,74.911480
KERALA,32,KASARAGOD,MANJESHWAR,MANGALPADY,221280,12.6579598,74.9189700,UPPALA EXCHANGE,12.670460,74.911480
KERALA,32,KASARAGOD,MANJESHWAR,MANJEWSWARAM,221281,12.7156300,74.8892600,UPPALA EXCHANGE,12.670460,74.911480
KERALA,32,KASARAGOD,MANJESHWAR,MEENJA,221282,12.7133200,74.9533200,UPPALA EXCHANGE,12.670460,74.911480
KERALA,32,KASARAGOD,MANJESHWAR,PAIVALIKE,221283,12.6868800,74.9830600,UPPALA EXCHANGE,12.670460,74.911480
KERALA,32,KASARAGOD,MANJESHWAR,PUTHIGE,221284,12.6214100,75.0083200,UPPALA EXCHANGE,12.670460,74.911480
KERALA,32,KASARAGOD,MANJESHWAR,VORKADY,221285,12.7538900,74.9473000,UPPALA EXCHANGE,12.670460,74.911480
KERALA,32,KASARAGOD,NILESHWAR,CHERUVATHUR,221286,12.2159000,75.1609000,CHERVATHUR OLT,12.210640,75.154570
KERALA,32,KASARAGOD,NILESHWAR,KAYYUR CHEEMENI,221288,12.2369000,75.2303000,CHERVATHUR OLT,12.210640,75.154570
KERALA,32,KASARAGOD,NILESHWAR,PADNE,221290,12.1699000,75.1503000,CHERVATHUR OLT,12.210640,75.154570
KERALA,32,KASARAGOD,NILESHWAR,PILICODE,221291,12.1911000,75.1674000,CHERVATHUR OLT,12.210640,75.154570
KERALA,32,KASARAGOD,NILESHWAR,THRIKKARIPUR,221292,12.1451000,75.1775000,CHERVATHUR OLT,12.210640,75.154570
KERALA,32,KASARAGOD,NILESHWAR,VALIYAPARAMBA,221293,12.1481000,75.1429000,CHERVATHUR OLT,12.210640,75.154570
KERALA,32,KASARAGOD,PARAPPA,BALAL,221258,12.3853000,75.2824000,BALAL EXCHANGE,12.385800,75.280400
KERALA,32,KASARAGOD,PARAPPA,EAST ELERI,221287,12.3233000,75.3590000,BALAL EXCHANGE,12.385800,75.280400
KERALA,32,KASARAGOD,PARAPPA,KALLAR,221259,12.4292000,75.2661000,BALAL EXCHANGE,12.385800,75.280400
KERALA,32,KASARAGOD,PARAPPA,KINANOOR KARINDALAM,221289,12.2875000,75.2483000,BALAL EXCHANGE,12.385800,75.280400
KERALA,32,KASARAGOD,PARAPPA,KODOMBELLUR,221260,12.3907000,75.1957000,BALAL EXCHANGE,12.385800,75.280400
KERALA,32,KASARAGOD,PARAPPA,PANATHADY,221263,12.4556000,75.3658000,BALAL EXCHANGE,12.385800,75.280400
KERALA,32,KASARAGOD,PARAPPA,WEST ELERI,221294,12.3215000,75.2877000,BALAL EXCHANGE,12.385800,75.280400
KERALA,32,KOLLAM,ANCHAL,ALAYAMON,221295,8.8921050,76.9518360,ANCHAL EXCHG,8.927764,76.911379
KERALA,32,KOLLAM,ANCHAL,ANCHAL,221296,8.9286190,76.9140430,ANCHAL EXCHG,8.927764,76.911379
KERALA,32,KOLLAM,ANCHAL,ARIENCAVU,221297,8.9708200,77.0973200,ANCHAL EXCHG,8.927764,76.911379
KERALA,32,KOLLAM,ANCHAL,EDAMULAKKAL,221298,8.9208870,76.8950790,ANCHAL EXCHG,8.927764,76.911379
KERALA,32,KOLLAM,ANCHAL,EROOR,221299,8.9362370,76.9460480,ANCHAL EXCHG,8.927764,76.911379
KERALA,32,KOLLAM,ANCHAL,KARAVALOOR,221300,8.9862180,76.9096380,ANCHAL EXCHG,8.927764,76.911379
KERALA,32,KOLLAM,ANCHAL,KULATHUPUZHA,221301,8.9072830,77.0543300,ANCHAL EXCHG,8.927764,76.911379
KERALA,32,KOLLAM,ANCHAL,THENMALA,221302,8.9661350,77.0695490,ANCHAL EXCHG,8.927764,76.911379
KERALA,32,KOLLAM,CHADAYAMANGALAM,CHADAYAMANGALAM,221305,8.8713540,76.8693210,CHADAYAMANGALAM XGE,8.873820,76.871320
KERALA,32,KOLLAM,CHADAYAMANGALAM,CHITHARA,221306,8.8143870,76.9740160,CHADAYAMANGALAM XGE,8.873820,76.871320
KERALA,32,KOLLAM,CHADAYAMANGALAM,ELAMADU,221307,8.9004290,76.8321030,CHADAYAMANGALAM XGE,8.873820,76.871320
KERALA,32,KOLLAM,CHADAYAMANGALAM,ITTIVA,221308,8.8673890,76.9073850,CHADAYAMANGALAM XGE,8.873820,76.871320
KERALA,32,KOLLAM,CHADAYAMANGALAM,KADAKKAL,221309,8.8264990,76.9175810,CHADAYAMANGALAM XGE,8.873820,76.871320
KERALA,32,KOLLAM,CHADAYAMANGALAM,KUMMIL,244115,8.7866920,76.9404150,CHADAYAMANGALAM XGE,8.873820,76.871320
KERALA,32,KOLLAM,CHADAYAMANGALAM,NILAMEL,221310,8.8230260,76.8831470,CHADAYAMANGALAM XGE,8.873820,76.871320
KERALA,32,KOLLAM,CHADAYAMANGALAM,VELINALLUR,221311,8.8742670,76.7759260,CHADAYAMANGALAM XGE,8.873820,76.871320
KERALA,32,KOLLAM,CHAVARA,CHAVARA,221312,8.9798300,76.5369500,CHAVARA T.E,8.975594,76.534469
KERALA,32,KOLLAM,CHAVARA,NEENDAKARA,221313,8.9557800,76.5340500,CHAVARA T.E,8.975594,76.534469
KERALA,32,KOLLAM,CHAVARA,PANMANA,221314,9.0114100,76.5417200,CHAVARA T.E,8.975594,76.534469
KERALA,32,KOLLAM,CHAVARA,THEKKUMBHAGAM,221315,8.9604500,76.5636300,CHAVARA T.E,8.975594,76.534469
KERALA,32,KOLLAM,CHAVARA,THEVALAKKARA,221316,9.0138900,76.5744000,CHAVARA T.E,8.975594,76.534469
KERALA,32,KOLLAM,CHITTUMALA,KIZHAKKEKALLADA,221317,9.0170500,76.6530300,KUNDARA T.E,8.963221,76.684707
KERALA,32,KOLLAM,CHITTUMALA,KUNDARA,221318,8.9608500,76.6724400,KUNDARA T.E,8.963221,76.684707
KERALA,32,KOLLAM,CHITTUMALA,MUNDROTHURUTHU,221319,9.0023330,76.6303600,KUNDARA T.E,8.963221,76.684707
KERALA,32,KOLLAM,CHITTUMALA,PANAYAM,221320,8.9372700,76.6173500,KUNDARA T.E,8.963221,76.684707
KERALA,32,KOLLAM,CHITTUMALA,PERAYAM,221321,8.9822800,76.6713300,KUNDARA T.E,8.963221,76.684707
KERALA,32,KOLLAM,CHITTUMALA,PERINAD,221322,8.9485000,76.6376300,KUNDARA T.E,8.963221,76.684707
KERALA,32,KOLLAM,CHITTUMALA,THRIKKADAVUR,221303,8.9286300,76.6014900,KUNDARA T.E,8.963221,76.684707
KERALA,32,KOLLAM,CHITTUMALA,THRIKKARUVA,221304,8.9509900,76.6003300,KUNDARA T.E,8.963221,76.684707
KERALA,32,KOLLAM,ITHIKKARA,ADICHANALLOOR,221323,8.8714700,76.6994200,CNO TE,8.863240,76.709380
KERALA,32,KOLLAM,ITHIKKARA,CHATHANNUR,221324,8.8630140,76.7151210,CNO TE,8.863240,76.709380
KERALA,32,KOLLAM,ITHIKKARA,CHIRAKKARA,244116,8.8249900,76.7150670,CNO TE,8.863240,76.709380
KERALA,32,KOLLAM,ITHIKKARA,KALLUVATHUKKAL,221325,8.8324840,76.7456460,CNO TE,8.863240,76.709380
KERALA,32,KOLLAM,ITHIKKARA,POOTHAKKULAM,221327,8.8172330,76.6990620,CNO TE,8.863240,76.709380
KERALA,32,KOLLAM,KOTTARAKKARA,EZHUKONE,221331,8.980340,76.720180,KOTTARAKKARA EXCH,8.999911,76.769156
KERALA,32,KOLLAM,KOTTARAKKARA,KAREEPRA,221332,8.951692,76.720164,KOTTARAKKARA EXCH,8.999911,76.769156
KERALA,32,KOLLAM,KOTTARAKKARA,KOTTARAKARA,221333,9.005440,76.779250,KOTTARAKKARA EXCH,8.999911,76.769156
KERALA,32,KOLLAM,KOTTARAKKARA,NEDUVATHUR,221334,8.998603,76.747188,KOTTARAKKARA EXCH,8.999911,76.769156
KERALA,32,KOLLAM,KOTTARAKKARA,POOYAPPALLY,221335,8.908344,76.762047,KOTTARAKKARA EXCH,8.999911,76.769156
KERALA,32,KOLLAM,KOTTARAKKARA,VELIYAM,221336,8.940959,76.772746,KOTTARAKKARA EXCH,8.999911,76.769156
KERALA,32,KOLLAM,MUKHATHALA,ELAMBALLUR,221337,8.9558570,76.6715070,MUK TE,8.897060,76.667520
KERALA,32,KOLLAM,MUKHATHALA,KOTTAMKARA,221338,8.9063140,76.6364900,MUK TE,8.897060,76.667520
KERALA,32,KOLLAM,MUKHATHALA,MAYYANAD,221339,8.8407090,76.6471910,MUK TE,8.897060,76.667520
KERALA,32,KOLLAM,MUKHATHALA,NEDUMPANA,221326,8.9069070,76.6908760,MUK TE,8.897060,76.667520
KERALA,32,KOLLAM,MUKHATHALA,THRIKKOVILVATTOM,221340,8.8988910,76.6665410,MUK TE,8.897060,76.667520
KERALA,32,KOLLAM,OACHIRA,ALAPPAD,221328,9.0698000,76.4962300,OCR TE,9.132040,76.512470
KERALA,32,KOLLAM,OACHIRA,CLAPPANA,221341,9.1112700,76.5089500,OCR TE,9.132040,76.512470
KERALA,32,KOLLAM,OACHIRA,KULASEKHARAPURAM,221342,9.0919600,76.5160100,OCR TE,9.132040,76.512470
KERALA,32,KOLLAM,OACHIRA,OACHIRA,221343,9.1320900,76.5126800,OCR TE,9.132040,76.512470
KERALA,32,KOLLAM,OACHIRA,THAZHAVA,221344,9.0890500,76.5611300,OCR TE,9.132040,76.512470
KERALA,32,KOLLAM,OACHIRA,THODIYOOR,221330,9.0672900,76.5595100,OCR TE,9.132040,76.512470
KERALA,32,KOLLAM,PATHANAPURAM,PATHANAPURAM,221345,9.0882110,76.8556860,PATHANAPURAM EXCH,9.098110,76.850734
KERALA,32,KOLLAM,PATHANAPURAM,PATTAZHI,221346,9.0770810,76.7964120,PATHANAPURAM EXCH,9.098110,76.850734
KERALA,32,KOLLAM,PATHANAPURAM,PATTAZHI VADAKKEKARA,221347,9.0939530,76.7984820,PATHANAPURAM EXCH,9.098110,76.850734
KERALA,32,KOLLAM,PATHANAPURAM,PIRAVANTHUR,221348,9.0556160,76.9161790,PATHANAPURAM EXCH,9.098110,76.850734
KERALA,32,KOLLAM,PATHANAPURAM,THALAVOOR,221349,9.0406440,76.8247510,PATHANAPURAM EXCH,9.098110,76.850734
KERALA,32,KOLLAM,PATHANAPURAM,VILAKUDY,221350,9.0284110,76.8556140,PATHANAPURAM EXCH,9.098110,76.850734
KERALA,32,KOLLAM,SASTHAMCOTTAH,KUNNATHUR,221351,9.0607380,76.6764700,SST TE,9.043800,76.624250
KERALA,32,KOLLAM,SASTHAMCOTTAH,MYNAGAPPALLY,221329,9.0417620,76.5893850,SST TE,9.043800,76.624250
KERALA,32,KOLLAM,SASTHAMCOTTAH,PORUVAZHY,221352,9.0749720,76.6606990,SST TE,9.043800,76.624250
KERALA,32,KOLLAM,SASTHAMCOTTAH,SASTHANCOTTA,221353,9.0435580,76.6268260,SST TE,9.043800,76.624250
KERALA,32,KOLLAM,SASTHAMCOTTAH,SOORANAD NORTH,221354,9.1026830,76.6197240,SST TE,9.043800,76.624250
KERALA,32,KOLLAM,SASTHAMCOTTAH,SOORANAD SOUTH,221355,9.0746930,76.6044630,SST TE,9.043800,76.624250
KERALA,32,KOLLAM,SASTHAMCOTTAH,WEST KALLADA,221356,9.0215070,76.6300180,SST TE,9.043800,76.624250
KERALA,32,KOLLAM,VETTIKKAVALA,KULAKKADA,221357,9.0557810,76.7315610,KOTTARAKKARA EXCH,8.999911,76.769156
KERALA,32,KOLLAM,VETTIKKAVALA,MELILA,221358,9.0129430,76.8250040,KOTTARAKKARA EXCH,8.999911,76.769156
KERALA,32,KOLLAM,VETTIKKAVALA,MYLAM,221359,9.0296760,76.7857210,KOTTARAKKARA EXCH,8.999911,76.769156
KERALA,32,KOLLAM,VETTIKKAVALA,PAVITHRESWARAM,221360,9.0541850,76.6981490,KOTTARAKKARA EXCH,8.999911,76.769156
KERALA,32,KOLLAM,VETTIKKAVALA,UMMANNUR,221361,8.9336470,76.8164260,KOTTARAKKARA EXCH,8.999911,76.769156
KERALA,32,KOLLAM,VETTIKKAVALA,VETTIKKAVALA,221362,8.9940260,76.8302790,KOTTARAKKARA EXCH,8.999911,76.769156
KERALA,32,KOTTAYAM,ERATTUPETTA,ERATTUPETTA,221363,9.6838300,76.7727500,ERATTUPETTA EXCHANGE,9.690314,76.775025
KERALA,32,KOTTAYAM,ERATTUPETTA,MELUKAVU,221364,9.7854500,76.7618000,ERATTUPETTA EXCHANGE,9.690314,76.775025
KERALA,32,KOTTAYAM,ERATTUPETTA,MOONILAVU,221365,9.7478670,76.7849330,ERATTUPETTA EXCHANGE,9.690314,76.775025
KERALA,32,KOTTAYAM,ERATTUPETTA,POONJAR,221366,9.6734000,76.7955830,ERATTUPETTA EXCHANGE,9.690314,76.775025
KERALA,32,KOTTAYAM,ERATTUPETTA,POONJAR THEKKEKARA,221367,9.6736000,76.8136000,ERATTUPETTA EXCHANGE,9.690314,76.775025
KERALA,32,KOTTAYAM,ERATTUPETTA,TEEKOY,221368,9.6992818,76.8054360,ERATTUPETTA EXCHANGE,9.690314,76.775025
KERALA,32,KOTTAYAM,ERATTUPETTA,THALANAD,221369,9.7232170,76.8095500,ERATTUPETTA EXCHANGE,9.690314,76.775025
KERALA,32,KOTTAYAM,ERATTUPETTA,THALAPPALAM,221370,9.7069330,76.7614170,ERATTUPETTA EXCHANGE,9.690314,76.775025
KERALA,32,KOTTAYAM,ERATTUPETTA,THIDANAD,221371,9.6611830,76.7789000,ERATTUPETTA EXCHANGE,9.690314,76.775025
KERALA,32,KOTTAYAM,ETTUMANOOR,ARPOOKARA,221373,9.6429450,76.5086870,GANDHINAGAR EXCHANGE,9.631481,76.520747
KERALA,32,KOTTAYAM,ETTUMANOOR,ATHIRAMPUZHA,221374,9.6691960,76.5380130,GANDHINAGAR EXCHANGE,9.631481,76.520747
KERALA,32,KOTTAYAM,ETTUMANOOR,AYMANAM,221372,9.6123200,76.4983700,GANDHINAGAR EXCHANGE,9.631481,76.520747
KERALA,32,KOTTAYAM,ETTUMANOOR,ETTUMANOOR,221375,9.6691200,76.5568000,GANDHINAGAR EXCHANGE,9.631481,76.520747
KERALA,32,KOTTAYAM,ETTUMANOOR,KUMARAKOM,221404,9.5922774,76.4354796,GANDHINAGAR EXCHANGE,9.631481,76.520747
KERALA,32,KOTTAYAM,ETTUMANOOR,NEENDOOR,221376,9.6868080,76.5049832,GANDHINAGAR EXCHANGE,9.631481,76.520747
KERALA,32,KOTTAYAM,ETTUMANOOR,THIRUVARPU,221408,9.5811155,76.4779108,GANDHINAGAR EXCHANGE,9.631481,76.520747
KERALA,32,KOTTAYAM,KADUTHURUTHY,KADUTHURUTHY,221377,9.7655500,76.4929830,KADUTHURUTHY EXGE,9.765200,76.492467
KERALA,32,KOTTAYAM,KADUTHURUTHY,KALLARA,221378,9.7084170,76.4767830,KADUTHURUTHY EXGE,9.765200,76.492467
KERALA,32,KOTTAYAM,KADUTHURUTHY,MULAKULAM,221380,9.8279000,76.4983000,KADUTHURUTHY EXGE,9.765200,76.492467
KERALA,32,KOTTAYAM,KADUTHURUTHY,NJEEZHOOR,221381,9.7899000,76.5232500,KADUTHURUTHY EXGE,9.765200,76.492467
KERALA,32,KOTTAYAM,KADUTHURUTHY,THALAYOLAPARAMBU,221382,9.7853500,76.4467170,KADUTHURUTHY EXGE,9.765200,76.492467
KERALA,32,KOTTAYAM,KADUTHURUTHY,VELLOOR,221383,9.8300170,76.4519500,KADUTHURUTHY EXGE,9.765200,76.492467
KERALA,32,KOTTAYAM,KANJIRAPPALLY,ERUMELI,221384,9.4811320,76.8455250,KANJIRAPALLY EXGE,9.554500,76.790183
KERALA,32,KOTTAYAM,KANJIRAPPALLY,KANJIRAPPALLY,221385,9.5534880,76.7897740,KANJIRAPALLY EXGE,9.554500,76.790183
KERALA,32,KOTTAYAM,KANJIRAPPALLY,KOOTTICKAL,221386,9.5846500,76.8867160,KANJIRAPALLY EXGE,9.554500,76.790183
KERALA,32,KOTTAYAM,KANJIRAPPALLY,KORUTHODE,239035,9.4671000,76.9631500,KANJIRAPALLY EXGE,9.554500,76.790183
KERALA,32,KOTTAYAM,KANJIRAPPALLY,MANIMALA,221387,9.4838100,76.7673230,KANJIRAPALLY EXGE,9.554500,76.790183
KERALA,32,KOTTAYAM,KANJIRAPPALLY,MUNDAKAYAM,221388,9.5383000,76.8859170,KANJIRAPALLY EXGE,9.554500,76.790183
KERALA,32,KOTTAYAM,KANJIRAPPALLY,PARATHODE,221389,9.5666860,76.8145924,KANJIRAPALLY EXGE,9.554500,76.790183
KERALA,32,KOTTAYAM,LALAM,BHARANANGANAM,221390,9.7008670,76.7282000,KOLLAPALLY EXGE,9.764967,76.703033
KERALA,32,KOTTAYAM,LALAM,KADANAD,221391,9.7795000,76.7016330,KOLLAPALLY EXGE,9.764967,76.703033
KERALA,32,KOTTAYAM,LALAM,KAROOR,221392,9.7373830,76.6697500,KOLLAPALLY EXGE,9.764967,76.703033
KERALA,32,KOTTAYAM,LALAM,KOZHUVANAL,221393,9.6561670,76.6633330,KOLLAPALLY EXGE,9.764967,76.703033
KERALA,32,KOTTAYAM,LALAM,MEENACHIL,221394,9.6829670,76.7223170,KOLLAPALLY EXGE,9.764967,76.703033
KERALA,32,KOTTAYAM,LALAM,MUTHOLY,221395,9.6927670,76.6633330,KOLLAPALLY EXGE,9.764967,76.703033
KERALA,32,KOTTAYAM,MADAPPALLY,MADAPPALLY,221398,9.4813164,76.5972581,KURISUMOODU EXGE,9.459550,76.553700
KERALA,32,KOTTAYAM,MADAPPALLY,PAIPPAD,221399,9.4263111,76.5613680,KURISUMOODU EXGE,9.459550,76.553700
KERALA,32,KOTTAYAM,MADAPPALLY,THRIKKODITHANAM,221400,9.4382670,76.5645900,KURISUMOODU EXGE,9.459550,76.553700
KERALA,32,KOTTAYAM,MADAPPALLY,VAKATHANAM,221401,9.5218000,76.5726670,KURISUMOODU EXGE,9.459550,76.553700
KERALA,32,KOTTAYAM,MADAPPALLY,VAZHAPPALLY,221402,9.4605670,76.5521000,KURISUMOODU EXGE,9.459550,76.553700
KERALA,32,KOTTAYAM,PALLOM,AYARKKUNNAM,221403,9.6352670,76.6051330,KOTTAYAM E,9.587090,76.520748
KERALA,32,KOTTAYAM,PALLOM,KURICHY,221397,9.4951170,76.5268670,KOTTAYAM E,9.587090,76.520748
KERALA,32,KOTTAYAM,PALLOM,PANACHIKKAD,221406,9.5290170,76.5412830,KOTTAYAM E,9.587090,76.520748
KERALA,32,KOTTAYAM,PALLOM,PUTHUPPALLY,221407,9.5551330,76.5723500,KOTTAYAM E,9.587090,76.520748
KERALA,32,KOTTAYAM,PALLOM,VIJAYAPURAM,221409,9.5914330,76.5645830,KOTTAYAM E,9.587090,76.520748
KERALA,32,KOTTAYAM,PAMPADY,AKALAKUNNAM,221410,9.6371500,76.6735330,PAMPADY EXGE,9.567550,76.639367
KERALA,32,KOTTAYAM,PAMPADY,ELIKULAM,221411,9.5995000,76.7319330,PAMPADY EXGE,9.567550,76.639367
KERALA,32,KOTTAYAM,PAMPADY,KIDANGOOR,221418,9.6846830,76.6103670,PAMPADY EXGE,9.567550,76.639367
KERALA,32,KOTTAYAM,PAMPADY,KOOROPPADA,221412,9.5970670,76.6474170,PAMPADY EXGE,9.567550,76.639367
KERALA,32,KOTTAYAM,PAMPADY,MANNARKADU,221405,9.5880170,76.5831670,PAMPADY EXGE,9.567550,76.639367
KERALA,32,KOTTAYAM,PAMPADY,MEENADOM,221413,9.5490170,76.6070830,PAMPADY EXGE,9.567550,76.639367
KERALA,32,KOTTAYAM,PAMPADY,PALLIKKATHODE,221414,9.6019330,76.6834830,PAMPADY EXGE,9.567550,76.639367
KERALA,32,KOTTAYAM,PAMPADY,PAMPADY,221415,9.5709670,76.6393170,PAMPADY EXGE,9.567550,76.639367
KERALA,32,KOTTAYAM,UZHAVOOR,KADAPLAMATTOM,221416,9.7049000,76.6088300,KURAVILANGAD EXGE,9.754950,76.561500
KERALA,32,KOTTAYAM,UZHAVOOR,KANAKKARI,221417,9.7160170,76.5589670,KURAVILANGAD EXGE,9.754950,76.561500
KERALA,32,KOTTAYAM,UZHAVOOR,KURAVILANGAD,221419,9.7575170,76.5605330,KURAVILANGAD EXGE,9.754950,76.561500
KERALA,32,KOTTAYAM,UZHAVOOR,MANJOOR,221379,9.7328830,76.5047500,KURAVILANGAD EXGE,9.754950,76.561500
KERALA,32,KOTTAYAM,UZHAVOOR,MARANGATTUPILLY,221420,9.7426830,76.6119170,KURAVILANGAD EXGE,9.754950,76.561500
KERALA,32,KOTTAYAM,UZHAVOOR,RAMAPURAM,221421,9.8024600,76.6618170,KURAVILANGAD EXGE,9.754950,76.561500
KERALA,32,KOTTAYAM,UZHAVOOR,UZHAVOOR,221422,9.7918330,76.6106670,KURAVILANGAD EXGE,9.754950,76.561500
KERALA,32,KOTTAYAM,UZHAVOOR,VELIYANNOOR,221423,9.8318000,76.6084330,KURAVILANGAD EXGE,9.754950,76.561500
KERALA,32,KOTTAYAM,VAIKOM,CHEMPU,221424,9.8153330,76.4236500,VAIKOM,9.745711,76.391525
KERALA,32,KOTTAYAM,VAIKOM,MARAVANTHURUTHU,221425,9.7938830,76.4180000,VAIKOM,9.745711,76.391525
KERALA,32,KOTTAYAM,VAIKOM,THALAYAZHAM,221426,9.7153830,76.4172330,VAIKOM,9.745711,76.391525
KERALA,32,KOTTAYAM,VAIKOM,TV PURAM,221427,9.7118830,76.3921330,VAIKOM,9.745711,76.391525
KERALA,32,KOTTAYAM,VAIKOM,UDAYANAPURAM,221428,9.7657170,76.4149830,VAIKOM,9.745711,76.391525
KERALA,32,KOTTAYAM,VAIKOM,VECHOOR,221429,9.6780830,76.4208000,VAIKOM,9.745711,76.391525
KERALA,32,KOTTAYAM,VAZHOOR,CHIRAKKADAVU,221430,9.5631330,76.7620500,KARUKACHAL EXGE,9.500700,76.637350
KERALA,32,KOTTAYAM,VAZHOOR,KANGAZHA,221431,9.5093500,76.6923670,KARUKACHAL EXGE,9.500700,76.637350
KERALA,32,KOTTAYAM,VAZHOOR,KARUKACHAL,221396,9.5009000,76.6365330,KARUKACHAL EXGE,9.500700,76.637350
KERALA,32,KOTTAYAM,VAZHOOR,NEDUMKUNNAM,221432,9.5093670,76.6659670,KARUKACHAL EXGE,9.500700,76.637350
KERALA,32,KOTTAYAM,VAZHOOR,VAZHOOR,221433,9.5665000,76.7067170,KARUKACHAL EXGE,9.500700,76.637350
KERALA,32,KOTTAYAM,VAZHOOR,VELLAVOOR,221434,9.4929170,76.7438670,KARUKACHAL EXGE,9.500700,76.637350
KERALA,32,KOZHIKODE,BALUSSERI,BALUSSERI,221436,11.4475700,75.8298700,"PERAMBRA  E",11.558028,75.753944
KERALA,32,KOZHIKODE,BALUSSERI,KOORACHUNDU,221437,11.5401800,75.8429900,"PERAMBRA  E",11.558028,75.753944
KERALA,32,KOZHIKODE,BALUSSERI,KOTTUR,221438,11.4956300,75.8162200,"PERAMBRA  E",11.558028,75.753944
KERALA,32,KOZHIKODE,BALUSSERI,NADUVANNUR,221439,11.4857200,75.7760500,"PERAMBRA  E",11.558028,75.753944
KERALA,32,KOZHIKODE,BALUSSERI,PANANGAD,221440,11.4550300,75.8425900,"PERAMBRA  E",11.558028,75.753944
KERALA,32,KOZHIKODE,BALUSSERI,ULIYERI,221441,11.4505700,75.7726100,"PERAMBRA  E",11.558028,75.753944
KERALA,32,KOZHIKODE,BALUSSERI,UNNIKULUM,221442,11.4429100,75.8805800,"PERAMBRA  E",11.558028,75.753944
KERALA,32,KOZHIKODE,CHELANNUR,CHELANNUR,221443,11.3569300,75.8044900,E CHELANNUR,11.350505,75.809417
KERALA,32,KOZHIKODE,CHELANNUR,KAKKODI,221444,11.3137200,75.7983900,E CHELANNUR,11.350505,75.809417
KERALA,32,KOZHIKODE,CHELANNUR,KAKKUR,221445,11.3864200,75.8237500,E CHELANNUR,11.350505,75.809417
KERALA,32,KOZHIKODE,CHELANNUR,NANMANDA,221446,11.4219200,75.8314100,E CHELANNUR,11.350505,75.809417
KERALA,32,KOZHIKODE,CHELANNUR,NARIKUNNI,221447,11.3672000,75.8639200,E CHELANNUR,11.350505,75.809417
KERALA,32,KOZHIKODE,CHELANNUR,THALAKULATHUR,221448,11.3531000,75.7591600,E CHELANNUR,11.350505,75.809417
KERALA,32,KOZHIKODE,KODUVALLY,KATTIPPARA,235965,11.4871100,75.9133800,E THAMARASSERY,11.422339,75.935138
KERALA,32,KOZHIKODE,KODUVALLY,KIZHAKKOTH,221449,11.3722900,75.8897200,E THAMARASSERY,11.422339,75.935138
KERALA,32,KOZHIKODE,KODUVALLY,KODENCHERI,221463,11.4310300,76.0067600,E THAMARASSERY,11.422339,75.935138
KERALA,32,KOZHIKODE,KODUVALLY,KODUVALLY,221450,11.4871100,75.9133800,E THAMARASSERY,11.422339,75.935138
KERALA,32,KOZHIKODE,KODUVALLY,KOODARANJI,221451,11.3481700,76.0360800,E THAMARASSERY,11.422339,75.935138
KERALA,32,KOZHIKODE,KODUVALLY,MADAVOOR,221452,11.3449300,75.8791600,E THAMARASSERY,11.422339,75.935138
KERALA,32,KOZHIKODE,KODUVALLY,OMASSERY,221453,11.3637400,75.9645400,E THAMARASSERY,11.422339,75.935138
KERALA,32,KOZHIKODE,KODUVALLY,PUTHUPPADY,221454,11.4800400,75.9743200,E THAMARASSERY,11.422339,75.935138
KERALA,32,KOZHIKODE,KODUVALLY,THAMARASSERI,221455,11.4096100,75.9368800,E THAMARASSERY,11.422339,75.935138
KERALA,32,KOZHIKODE,KODUVALLY,THIRUVAMBADI,221456,11.3637200,76.0102500,E THAMARASSERY,11.422339,75.935138
KERALA,32,KOZHIKODE,KOZHIKODE,FEROKE,221457,11.1793700,75.8329300,"E FEROKE",11.186867,75.831499
KERALA,32,KOZHIKODE,KOZHIKODE,KADALUNDI,221458,11.1506078,75.8279001,"E FEROKE",11.186867,75.831499
KERALA,32,KOZHIKODE,KOZHIKODE,OLAVANNA,221459,11.2285400,75.8330200,"E FEROKE",11.186867,75.831499
KERALA,32,KOZHIKODE,KOZHIKODE,RAMANATTUKARA,221460,11.1786500,75.8671500,"E FEROKE",11.186867,75.831499
KERALA,32,KOZHIKODE,KUNNAMANGALAM,CHATHAMANGALAM,221461,11.3182400,75.9398300,MOKKOM TE,11.321490,75.993290
KERALA,32,KOZHIKODE,KUNNAMANGALAM,KARASSERI,221462,11.3165700,75.9978600,MOKKOM TE,11.321490,75.993290
KERALA,32,KOZHIKODE,KUNNAMANGALAM,KODIYATHUR,221464,11.2844200,75.9872800,MOKKOM TE,11.321490,75.993290
KERALA,32,KOZHIKODE,KUNNAMANGALAM,KUNNAMANGALAM,221465,11.3050700,75.8783600,MOKKOM TE,11.321490,75.993290
KERALA,32,KOZHIKODE,KUNNAMANGALAM,KURUVATTUR,221466,11.3190200,75.8516100,MOKKOM TE,11.321490,75.993290
KERALA,32,KOZHIKODE,KUNNAMANGALAM,MAVOOR,221467,11.2609200,75.9519800,MOKKOM TE,11.321490,75.993290
KERALA,32,KOZHIKODE,KUNNAMANGALAM,MOKKOM,221468,11.3211300,75.9970900,MOKKOM TE,11.321490,75.993290
KERALA,32,KOZHIKODE,KUNNAMANGALAM,PERUMANNA,221469,11.2394400,75.8786400,MOKKOM TE,11.321490,75.993290
KERALA,32,KOZHIKODE,KUNNAMANGALAM,PERUVAYAL,221470,11.2644000,75.8889000,MOKKOM TE,11.321490,75.993290
KERALA,32,KOZHIKODE,KUNNUMMAL,KAVILUMPARA,221471,11.6771600,75.7790300,"MOKERI  E",11.667261,75.730319
KERALA,32,KOZHIKODE,KUNNUMMAL,KAYAKKODI,221472,11.6675695,75.7532523,"MOKERI  E",11.667261,75.730319
KERALA,32,KOZHIKODE,KUNNUMMAL,KUNNUMAL,221473,11.6771075,75.7002922,"MOKERI  E",11.667261,75.730319
KERALA,32,KOZHIKODE,KUNNUMMAL,KUTTIADI,221474,11.6551790,75.7493626,"MOKERI  E",11.667261,75.730319
KERALA,32,KOZHIKODE,KUNNUMMAL,MARUTHOMKARA,221475,11.6423200,75.8036300,"MOKERI  E",11.667261,75.730319
KERALA,32,KOZHIKODE,KUNNUMMAL,NARIPETTA,221477,11.7086621,75.7222390,"MOKERI  E",11.667261,75.730319
KERALA,32,KOZHIKODE,KUNNUMMAL,VELOM,221478,11.6216662,75.7075438,"MOKERI  E",11.667261,75.730319
KERALA,32,KOZHIKODE,MELDAY,KEEZHARIYUR,221479,11.4990800,75.6930400,KOYILANDI EXCHANGE,11.442639,75.693528
KERALA,32,KOZHIKODE,MELDAY,MEPPAYUR,221480,11.5306580,75.7109787,KOYILANDI EXCHANGE,11.442639,75.693528
KERALA,32,KOZHIKODE,MELDAY,PAYYOLI,221481,11.5154300,75.6220500,KOYILANDI EXCHANGE,11.442639,75.693528
KERALA,32,KOZHIKODE,MELDAY,THIKKODI,221482,11.4952400,75.6269700,KOYILANDI EXCHANGE,11.442639,75.693528
KERALA,32,KOZHIKODE,MELDAY,THURAYUR,221483,11.5268198,75.6559175,KOYILANDI EXCHANGE,11.442639,75.693528
KERALA,32,KOZHIKODE,PANTHALAYANI,ARIKULAM,221484,11.4924700,75.7165000,KOYILANDI EXCHANGE,11.442639,75.693528
KERALA,32,KOZHIKODE,PANTHALAYANI,ATHOLI,221435,11.4022200,75.7627300,KOYILANDI EXCHANGE,11.442639,75.693528
KERALA,32,KOZHIKODE,PANTHALAYANI,CHEMANACHERY,221485,11.3947600,75.7274600,KOYILANDI EXCHANGE,11.442639,75.693528
KERALA,32,KOZHIKODE,PANTHALAYANI,CHENGOTTUKAVU,221486,11.4225700,75.7124000,KOYILANDI EXCHANGE,11.442639,75.693528
KERALA,32,KOZHIKODE,PANTHALAYANI,MOODADI,221487,11.4703800,75.6524000,KOYILANDI EXCHANGE,11.442639,75.693528
KERALA,32,KOZHIKODE,PERAMBRA,CHAKITTAPARA,221488,11.5761100,75.8169000,"PERAMBRA  E",11.558028,75.753944
KERALA,32,KOZHIKODE,PERAMBRA,CHANGAROTH,221489,11.5995000,75.7650600,"PERAMBRA  E",11.558028,75.753944
KERALA,32,KOZHIKODE,PERAMBRA,CHERUVANNUR,221490,11.5639800,75.7108200,"PERAMBRA  E",11.558028,75.753944
KERALA,32,KOZHIKODE,PERAMBRA,KAYANNA,221491,11.5337300,75.7995400,"PERAMBRA  E",11.558028,75.753944
KERALA,32,KOZHIKODE,PERAMBRA,KOOTHALI,221492,11.5873100,75.7655400,"PERAMBRA  E",11.558028,75.753944
KERALA,32,KOZHIKODE,PERAMBRA,NOCHAD,221493,11.5368100,75.7710100,"PERAMBRA  E",11.558028,75.753944
KERALA,32,KOZHIKODE,PERAMBRA,PERAMBRA,221494,11.5587200,75.7580000,"PERAMBRA  E",11.558028,75.753944
KERALA,32,KOZHIKODE,THODANNUR,AYANCHERI,221495,11.6462500,75.6649100,THIRUVALLUR TE,11.592943,75.673634
KERALA,32,KOZHIKODE,THODANNUR,MANIYUR,221496,11.5544900,75.6419600,THIRUVALLUR TE,11.592943,75.673634
KERALA,32,KOZHIKODE,THODANNUR,THIRUVALLUR,221497,11.5885600,75.6735200,THIRUVALLUR TE,11.592943,75.673634
KERALA,32,KOZHIKODE,THODANNUR,VILLIYAPPALLY,221498,11.6244100,75.6270400,THIRUVALLUR TE,11.592943,75.673634
KERALA,32,KOZHIKODE,THUNERI,CHEKKIAD,221499,11.7291400,75.6385000,E NADAPURAM,11.685033,75.655416
KERALA,32,KOZHIKODE,THUNERI,EDACHERI,221500,11.6613400,75.6151700,E NADAPURAM,11.685033,75.655416
KERALA,32,KOZHIKODE,THUNERI,NADAPURAM,221476,11.6892600,75.6648760,E NADAPURAM,11.685033,75.655416
KERALA,32,KOZHIKODE,THUNERI,PURAMERI,221501,11.6713879,75.6348900,E NADAPURAM,11.685033,75.655416
KERALA,32,KOZHIKODE,THUNERI,THUNERI,221502,11.7086192,75.6343477,E NADAPURAM,11.685033,75.655416
KERALA,32,KOZHIKODE,THUNERI,VALAYAM,221503,11.7293200,75.6743900,E NADAPURAM,11.685033,75.655416
KERALA,32,KOZHIKODE,THUNERI,VANIMEL,221504,11.7186000,75.6988400,E NADAPURAM,11.685033,75.655416
KERALA,32,KOZHIKODE,VADAKARA,AZHIYUR,221505,11.6882900,75.5429800,"E VATAKARA",11.599445,75.587194
KERALA,32,KOZHIKODE,VADAKARA,CHORODE,221506,11.6253700,75.5783000,"E VATAKARA",11.599445,75.587194
KERALA,32,KOZHIKODE,VADAKARA,ERAMALA,221507,11.6523200,75.6037400,"E VATAKARA",11.599445,75.587194
KERALA,32,KOZHIKODE,VADAKARA,ONCHIYAM,221508,11.6509000,75.5626500,"E VATAKARA",11.599445,75.587194
KERALA,32,MALAPPURAM,AREAKODE,AREEKODE,221509,11.2347050,76.0500620,AREACODE TE,11.231962,76.053667
KERALA,32,MALAPPURAM,AREAKODE,CHEKKODE,221510,11.2138000,75.9864390,AREACODE TE,11.231962,76.053667
KERALA,32,MALAPPURAM,AREAKODE,EDAVANNA,221597,11.2150490,76.1397430,AREACODE TE,11.231962,76.053667
KERALA,32,MALAPPURAM,AREAKODE,KAVANNUR,221511,11.1970070,76.0650720,AREACODE TE,11.231962,76.053667
KERALA,32,MALAPPURAM,AREAKODE,KIZHUPARAMBA,221512,11.2490680,76.0233670,AREACODE TE,11.231962,76.053667
KERALA,32,MALAPPURAM,AREAKODE,KUZHIMANNA,221513,11.1788210,76.0026320,AREACODE TE,11.231962,76.053667
KERALA,32,MALAPPURAM,AREAKODE,PULPATTA,221514,11.1583040,76.0605870,AREACODE TE,11.231962,76.053667
KERALA,32,MALAPPURAM,AREAKODE,URUNGATTIRI,221515,11.2473990,76.0502660,AREACODE TE,11.231962,76.053667
KERALA,32,MALAPPURAM,KALIKAVU,AMARAMBALAM,221544,11.2430800,76.2984900,POOKKOTUMPADAM TE,11.244290,76.304360
KERALA,32,MALAPPURAM,KALIKAVU,CHOKKAD,221546,11.2269600,76.3287600,POOKKOTUMPADAM TE,11.244290,76.304360
KERALA,32,MALAPPURAM,KALIKAVU,EDAPPATTA,221555,11.0815600,76.2919800,POOKKOTUMPADAM TE,11.244290,76.304360
KERALA,32,MALAPPURAM,KALIKAVU,KALIKAVU,221549,11.1704200,76.3182100,POOKKOTUMPADAM TE,11.244290,76.304360
KERALA,32,MALAPPURAM,KALIKAVU,KARULAI,221550,11.2838200,76.2964800,POOKKOTUMPADAM TE,11.244290,76.304360
KERALA,32,MALAPPURAM,KALIKAVU,KARUVARAKUNDU,221598,11.1249600,76.3378300,POOKKOTUMPADAM TE,11.244290,76.304360
KERALA,32,MALAPPURAM,KALIKAVU,THUVVUR,221603,11.1150500,76.2847000,POOKKOTUMPADAM TE,11.244290,76.304360
KERALA,32,MALAPPURAM,KONDOTTY,CHELAMBRA,221516,11.1634500,75.8793400,KONDOTTY TE,11.152099,75.958667
KERALA,32,MALAPPURAM,KONDOTTY,CHERUKAVU,221517,11.1723400,75.9160700,KONDOTTY TE,11.152099,75.958667
KERALA,32,MALAPPURAM,KONDOTTY,KONDOTTY,221518,11.1522000,75.9555800,KONDOTTY TE,11.152099,75.958667
KERALA,32,MALAPPURAM,KONDOTTY,MUDUVALUR,239029,11.1992900,75.9818100,KONDOTTY TE,11.152099,75.958667
KERALA,32,MALAPPURAM,KONDOTTY,NEDIYIRUPU,221519,11.1424300,75.9726600,KONDOTTY TE,11.152099,75.958667
KERALA,32,MALAPPURAM,KONDOTTY,PALLIKKAL,221520,11.1508400,75.9147200,KONDOTTY TE,11.152099,75.958667
KERALA,32,MALAPPURAM,KONDOTTY,PULIKKAL,221521,11.1696700,75.9269800,KONDOTTY TE,11.152099,75.958667
KERALA,32,MALAPPURAM,KONDOTTY,VAZHAKKAD,221522,11.2459020,75.9524940,KONDOTTY TE,11.152099,75.958667
KERALA,32,MALAPPURAM,KONDOTTY,VAZHAYUR,221523,11.2069300,75.8771600,KONDOTTY TE,11.152099,75.958667
KERALA,32,MALAPPURAM,KUTTIPPURAM,ATHAVANAD,221524,10.9224630,76.0338900,VALANCHERRY EXCH,10.890395,76.069998
KERALA,32,MALAPPURAM,KUTTIPPURAM,EDAYOOR,221525,10.9049240,76.0973970,VALANCHERRY EXCH,10.890395,76.069998
KERALA,32,MALAPPURAM,KUTTIPPURAM,IRIMBILAYAM,221526,10.8733530,76.1010970,VALANCHERRY EXCH,10.890395,76.069998
KERALA,32,MALAPPURAM,KUTTIPPURAM,KALPAKANCHERI,221570,10.9385290,75.9908218,VALANCHERRY EXCH,10.890395,76.069998
KERALA,32,MALAPPURAM,KUTTIPPURAM,KUTTIPPURAM,221527,10.8472010,76.0361500,VALANCHERRY EXCH,10.890395,76.069998
KERALA,32,MALAPPURAM,KUTTIPPURAM,MARAKKARA,221528,10.9509620,76.0340500,VALANCHERRY EXCH,10.890395,76.069998
KERALA,32,MALAPPURAM,KUTTIPPURAM,VALANCHERRY,221529,10.8901800,76.0702700,VALANCHERRY EXCH,10.890395,76.069998
KERALA,32,MALAPPURAM,MALAPPURAM,ANAKKAYAM,221530,11.0895800,76.1204270,MALAPPURAM EXCH,11.041643,76.077274
KERALA,32,MALAPPURAM,MALAPPURAM,KODUR,221536,11.0202020,76.0736000,MALAPPURAM EXCH,11.041643,76.077274
KERALA,32,MALAPPURAM,MALAPPURAM,MORAYUR,221531,11.1378950,76.0169060,MALAPPURAM EXCH,11.041643,76.077274
KERALA,32,MALAPPURAM,MALAPPURAM,OTHUKKUNGAL,221593,11.0271910,76.0307120,MALAPPURAM EXCH,11.041643,76.077274
KERALA,32,MALAPPURAM,MALAPPURAM,PONMALA,221532,11.0012670,76.0563370,MALAPPURAM EXCH,11.041643,76.077274
KERALA,32,MALAPPURAM,MALAPPURAM,POOKKOTTUR,221533,11.1051400,76.0583010,MALAPPURAM EXCH,11.041643,76.077274
KERALA,32,MALAPPURAM,MANKADA,KOOTTILANGADI,221537,11.0564090,76.1092530,PERINTHALMANNA EXCH,10.974478,76.225859
KERALA,32,MALAPPURAM,MANKADA,KURUVA,221538,10.9859750,76.1078470,PERINTHALMANNA EXCH,10.974478,76.225859
KERALA,32,MALAPPURAM,MANKADA,MAKKARAPARAMBA,221539,11.0183260,76.1208390,PERINTHALMANNA EXCH,10.974478,76.225859
KERALA,32,MALAPPURAM,MANKADA,MANKADA,221540,11.0372820,76.1607200,PERINTHALMANNA EXCH,10.974478,76.225859
KERALA,32,MALAPPURAM,MANKADA,MOORKKANAD,221541,10.9271900,76.1333690,PERINTHALMANNA EXCH,10.974478,76.225859
KERALA,32,MALAPPURAM,MANKADA,PUZHAKKATTIRI,221543,10.9781350,76.1554110,PERINTHALMANNA EXCH,10.974478,76.225859
KERALA,32,MALAPPURAM,NILAMBUR,CHALIYAR,221545,11.3136900,76.2059600,NILAMBUR EXCH,11.278366,76.228359
KERALA,32,MALAPPURAM,NILAMBUR,CHUNGATHARA,221547,11.3363200,76.2769500,NILAMBUR EXCH,11.278366,76.228359
KERALA,32,MALAPPURAM,NILAMBUR,EDAKKARA,221548,11.3595400,76.3070500,NILAMBUR EXCH,11.278366,76.228359
KERALA,32,MALAPPURAM,NILAMBUR,MOOTHADEM,221551,11.3256500,76.3319000,NILAMBUR EXCH,11.278366,76.228359
KERALA,32,MALAPPURAM,NILAMBUR,POTHUKKAL,221552,11.4044200,76.2512000,NILAMBUR EXCH,11.278366,76.228359
KERALA,32,MALAPPURAM,NILAMBUR,VAZHIKKADAVU,221553,11.3806200,76.3413900,NILAMBUR EXCH,11.278366,76.228359
KERALA,32,MALAPPURAM,PERINTHALMANNA,ALIPARAMBA,221554,10.9277930,76.2783030,PERINTHALMANNA EXCH,10.974478,76.225859
KERALA,32,MALAPPURAM,PERINTHALMANNA,ANGADIPURAM,221535,10.9717470,76.2008080,PERINTHALMANNA EXCH,10.974478,76.225859
KERALA,32,MALAPPURAM,PERINTHALMANNA,ELAMKULAM,221556,10.9094750,76.2258760,PERINTHALMANNA EXCH,10.974478,76.225859
KERALA,32,MALAPPURAM,PERINTHALMANNA,KEEZHATTUR,221557,11.0530800,76.2313430,PERINTHALMANNA EXCH,10.974478,76.225859
KERALA,32,MALAPPURAM,PERINTHALMANNA,MELATTUR,221558,11.0609980,76.2713360,PERINTHALMANNA EXCH,10.974478,76.225859
KERALA,32,MALAPPURAM,PERINTHALMANNA,PULAMANTHOLE,221542,10.9019270,76.1937140,PERINTHALMANNA EXCH,10.974478,76.225859
KERALA,32,MALAPPURAM,PERINTHALMANNA,THAZHEKODE,221559,10.9538500,76.3193750,PERINTHALMANNA EXCH,10.974478,76.225859
KERALA,32,MALAPPURAM,PERINTHALMANNA,VETTATHUR,221560,11.0187320,76.2793280,PERINTHALMANNA EXCH,10.974478,76.225859
KERALA,32,MALAPPURAM,PERUMPADAPPU,ALAMCODE,221561,10.7366790,76.0295380,MARANCHERRY EXCH,10.739756,75.971138
KERALA,32,MALAPPURAM,PERUMPADAPPU,MARANCHERI,221562,10.7337340,75.9751200,MARANCHERRY EXCH,10.739756,75.971138
KERALA,32,MALAPPURAM,PERUMPADAPPU,NANNAMUKKU,221563,10.7165440,76.0178740,MARANCHERRY EXCH,10.739756,75.971138
KERALA,32,MALAPPURAM,PERUMPADAPPU,PERUMPADAPPA,221564,10.6991890,75.9885010,MARANCHERRY EXCH,10.739756,75.971138
KERALA,32,MALAPPURAM,PERUMPADAPPU,VELIYANCODE,221565,10.7253000,75.9779800,MARANCHERRY EXCH,10.739756,75.971138
KERALA,32,MALAPPURAM,PONNANI,EDAPPAL,221566,10.7858238,76.0014725,TAVANUR EXCH,10.844521,75.988263
KERALA,32,MALAPPURAM,PONNANI,KALADY,239030,10.8269430,75.9907210,TAVANUR EXCH,10.844521,75.988263
KERALA,32,MALAPPURAM,PONNANI,TAVANUR,221567,10.8412943,75.9944153,TAVANUR EXCH,10.844521,75.988263
KERALA,32,MALAPPURAM,PONNANI,VATTAMKULAM,221568,10.7827816,76.0235062,TAVANUR EXCH,10.844521,75.988263
KERALA,32,MALAPPURAM,TANUR,CHERIYAMUNDAM,221569,10.9490180,75.9481320,TANALUR  EXCHANGE,10.951695,75.913684
KERALA,32,MALAPPURAM,TANUR,NIRAMARUTHOOR,221571,10.9258140,75.9005670,TANALUR  EXCHANGE,10.951695,75.913684
KERALA,32,MALAPPURAM,TANUR,OZHUR,221572,10.9807330,75.9185850,TANALUR  EXCHANGE,10.951695,75.913684
KERALA,32,MALAPPURAM,TANUR,PERUMANNAKLARI,239031,10.9809240,75.9580090,TANALUR  EXCHANGE,10.951695,75.913684
KERALA,32,MALAPPURAM,TANUR,PONMUNDAM,221573,10.9534240,75.9462780,TANALUR  EXCHANGE,10.951695,75.913684
KERALA,32,MALAPPURAM,TANUR,TANALUR,221574,10.9519450,75.9090320,TANALUR  EXCHANGE,10.951695,75.913684
KERALA,32,MALAPPURAM,TANUR,TANUR,221575,10.9772400,75.8804100,TANALUR  EXCHANGE,10.951695,75.913684
KERALA,32,MALAPPURAM,TANUR,VALAVANNUR,221576,10.9398320,75.9759220,TANALUR  EXCHANGE,10.951695,75.913684
KERALA,32,MALAPPURAM,TIRUR,MANGALAM,221577,10.8508340,75.9211730,TIR-TIRUR UI,10.911673,75.921777
KERALA,32,MALAPPURAM,TIRUR,PURATHUR,221578,10.8156900,75.9244190,TIR-TIRUR UI,10.911673,75.921777
KERALA,32,MALAPPURAM,TIRUR,THALAKKAD,221579,10.8845005,75.9323654,TIR-TIRUR UI,10.911673,75.921777
KERALA,32,MALAPPURAM,TIRUR,THIRUNAVAYA,221580,10.8653330,75.9818540,TIR-TIRUR UI,10.911673,75.921777
KERALA,32,MALAPPURAM,TIRUR,TRIPRANGODE,221581,10.8486060,75.9414020,TIR-TIRUR UI,10.911673,75.921777
KERALA,32,MALAPPURAM,TIRUR,VETTOM,221582,10.8757690,75.9068320,TIR-TIRUR UI,10.911673,75.921777
KERALA,32,MALAPPURAM,TIRURANGADI,MOONNIYUR,221583,11.0807037,75.9020691,TIRURANGADI EXCH,11.041665,75.909556
KERALA,32,MALAPPURAM,TIRURANGADI,NANNAMBRA,221584,11.0101540,75.9238970,TIRURANGADI EXCH,11.041665,75.909556
KERALA,32,MALAPPURAM,TIRURANGADI,PARAPPANANGADI,221585,11.0480600,75.8590100,TIRURANGADI EXCH,11.041665,75.909556
KERALA,32,MALAPPURAM,TIRURANGADI,PERUVALLUR,221586,11.1057860,75.9278480,TIRURANGADI EXCH,11.041665,75.909556
KERALA,32,MALAPPURAM,TIRURANGADI,THENHIPPALAM,221587,11.1188200,75.8930700,TIRURANGADI EXCH,11.041665,75.909556
KERALA,32,MALAPPURAM,TIRURANGADI,TIRURANGADI,221588,11.0428200,75.9136800,TIRURANGADI EXCH,11.041665,75.909556
KERALA,32,MALAPPURAM,TIRURANGADI,VALLIKKUNNU,221589,11.1205063,75.8464355,TIRURANGADI EXCH,11.041665,75.909556
KERALA,32,MALAPPURAM,VENGARA,ABDUL RAHIMAN NAGAR,221590,11.0712385,75.9354934,VENGARA TE,11.051500,75.986778
KERALA,32,MALAPPURAM,VENGARA,EDARIKODE,221591,10.9936250,75.9793970,VENGARA TE,11.051500,75.986778
KERALA,32,MALAPPURAM,VENGARA,KANNAMANGALAM,221592,11.0789880,75.9763260,VENGARA TE,11.051500,75.986778
KERALA,32,MALAPPURAM,VENGARA,PARAPPUR,221594,11.0136410,75.9916690,VENGARA TE,11.051500,75.986778
KERALA,32,MALAPPURAM,VENGARA,THENNALA,221595,10.9967127,75.9599991,VENGARA TE,11.051500,75.986778
KERALA,32,MALAPPURAM,VENGARA,URAKAM,221534,11.0632470,76.0153810,VENGARA TE,11.051500,75.986778
KERALA,32,MALAPPURAM,VENGARA,VENGARA,221596,11.0502670,75.9845970,VENGARA TE,11.051500,75.986778
KERALA,32,MALAPPURAM,WANDOOR,MAMBAD,221599,11.2448570,76.1817000,WANDUR TE,11.195214,76.239950
KERALA,32,MALAPPURAM,WANDOOR,PANDIKKAD,221600,11.0955530,76.2225920,WANDUR TE,11.195214,76.239950
KERALA,32,MALAPPURAM,WANDOOR,PORUR,221601,11.1627020,76.2301000,WANDUR TE,11.195214,76.239950
KERALA,32,MALAPPURAM,WANDOOR,THIRUVALI,221602,11.1997270,76.1777520,WANDUR TE,11.195214,76.239950
KERALA,32,MALAPPURAM,WANDOOR,TRIKKALANGODE,221604,11.1627370,76.1292820,WANDUR TE,11.195214,76.239950
KERALA,32,MALAPPURAM,WANDOOR,WANDOOR,221605,11.1935470,76.2350010,WANDUR TE,11.195214,76.239950
KERALA,32,PALAKKAD,ALATHUR,ALATHUR,221606,10.6446040,76.5477830,ALATHUR EXCHANGE,10.648567,76.544000
KERALA,32,PALAKKAD,ALATHUR,ERIMAYUR,221607,10.6469600,76.5661100,ALATHUR EXCHANGE,10.648567,76.544000
KERALA,32,PALAKKAD,ALATHUR,KANNAMBARA,221608,10.6168830,76.4604550,ALATHUR EXCHANGE,10.648567,76.544000
KERALA,32,PALAKKAD,ALATHUR,KAVASERY,221609,10.6554590,76.5119890,ALATHUR EXCHANGE,10.648567,76.544000
KERALA,32,PALAKKAD,ALATHUR,KIZHAKKANCHERRY,221610,10.5736210,76.4966330,ALATHUR EXCHANGE,10.648567,76.544000
KERALA,32,PALAKKAD,ALATHUR,PUDUCODE,221611,10.6350236,76.4501561,ALATHUR EXCHANGE,10.648567,76.544000
KERALA,32,PALAKKAD,ALATHUR,TARUR,221612,10.6709660,76.4726620,ALATHUR EXCHANGE,10.648567,76.544000
KERALA,32,PALAKKAD,ALATHUR,VADAKKANCHERI,221613,10.5920390,76.4831530,ALATHUR EXCHANGE,10.648567,76.544000
KERALA,32,PALAKKAD,ATTAPPADI,AGALI,221615,11.1128800,76.6539500,AGALI EXCHANGE,11.104088,76.653261
KERALA,32,PALAKKAD,ATTAPPADI,PUDUR,221616,11.1540300,76.6448200,AGALI EXCHANGE,11.104088,76.653261
KERALA,32,PALAKKAD,ATTAPPADI,SHOLAYAR,221617,11.1176000,76.7463800,AGALI EXCHANGE,11.104088,76.653261
KERALA,32,PALAKKAD,CHITTUR,ELAPPULLY,221637,10.7580100,76.7518500,CHITTUR EX,10.703201,76.746442
KERALA,32,PALAKKAD,CHITTUR,ERUTHAMPATHY,221618,10.7355820,76.8622760,CHITTUR EX,10.703201,76.746442
KERALA,32,PALAKKAD,CHITTUR,KOZHINJAMPARA,221619,10.7388189,76.8341210,CHITTUR EX,10.703201,76.746442
KERALA,32,PALAKKAD,CHITTUR,NALLEPPILLY,221620,10.7293520,76.7866000,CHITTUR EX,10.703201,76.746442
KERALA,32,PALAKKAD,CHITTUR,PERUMATTY,221622,10.6497480,76.7631390,CHITTUR EX,10.703201,76.746442
KERALA,32,PALAKKAD,CHITTUR,POLPULLY,221641,10.7310600,76.7302000,CHITTUR EX,10.703201,76.746442
KERALA,32,PALAKKAD,CHITTUR,VADAKARAPATHY,221623,10.8093770,76.8462360,CHITTUR EX,10.703201,76.746442
KERALA,32,PALAKKAD,KOLLENGODE,KODUVAYUR,221624,10.6885618,76.6568909,KOLLANGODE EXCHANGE,10.613507,76.692303
KERALA,32,PALAKKAD,KOLLENGODE,KOLLENGODE,221625,10.6132980,76.6914317,KOLLANGODE EXCHANGE,10.613507,76.692303
KERALA,32,PALAKKAD,KOLLENGODE,MUTHALAMADA,221626,10.6065247,76.7622988,KOLLANGODE EXCHANGE,10.613507,76.692303
KERALA,32,PALAKKAD,KOLLENGODE,PATTENCHERRY,221621,10.6500700,76.7377830,KOLLANGODE EXCHANGE,10.613507,76.692303
KERALA,32,PALAKKAD,KOLLENGODE,PERUVEMBA,221640,10.6965400,76.6884000,KOLLANGODE EXCHANGE,10.613507,76.692303
KERALA,32,PALAKKAD,KOLLENGODE,PUTHUNAGARAM,221627,10.6820798,76.6854380,KOLLANGODE EXCHANGE,10.613507,76.692303
KERALA,32,PALAKKAD,KOLLENGODE,VADAVANNUR,221628,10.6433372,76.6937119,KOLLANGODE EXCHANGE,10.613507,76.692303
KERALA,32,PALAKKAD,KUZHALMANNAM,KANNADI,221629,10.7307737,76.6402410,KOTTAYI EXCHANGE,10.766000,76.543550
KERALA,32,PALAKKAD,KUZHALMANNAM,KOTTAYI,221630,10.7654040,76.5433700,KOTTAYI EXCHANGE,10.766000,76.543550
KERALA,32,PALAKKAD,KUZHALMANNAM,KUTHANOOR,221631,10.7320100,76.5447580,KOTTAYI EXCHANGE,10.766000,76.543550
KERALA,32,PALAKKAD,KUZHALMANNAM,KUZHALMANNAM,221632,10.7094282,76.5927396,KOTTAYI EXCHANGE,10.766000,76.543550
KERALA,32,PALAKKAD,KUZHALMANNAM,MATHUR,221633,10.7413480,76.5723020,KOTTAYI EXCHANGE,10.766000,76.543550
KERALA,32,PALAKKAD,KUZHALMANNAM,PERINGOTTUKURISSI,221634,10.7564000,76.4924800,KOTTAYI EXCHANGE,10.766000,76.543550
KERALA,32,PALAKKAD,KUZHALMANNAM,THENKURISSI,221635,10.6901010,76.6222900,KOTTAYI EXCHANGE,10.766000,76.543550
KERALA,32,PALAKKAD,MALAMPUZHA,AKATHETHARA,221636,10.8151800,76.6511500,CHITTUR EX,10.703201,76.746442
KERALA,32,PALAKKAD,MALAMPUZHA,KODUMBA,221666,10.7483750,76.6896380,CHITTUR EX,10.703201,76.746442
KERALA,32,PALAKKAD,MALAMPUZHA,MALAMPUZHA,221638,10.8218700,76.6687200,CHITTUR EX,10.703201,76.746442
KERALA,32,PALAKKAD,MALAMPUZHA,MARUTHARODE,221639,10.7841400,76.6751600,CHITTUR EX,10.703201,76.746442
KERALA,32,PALAKKAD,MALAMPUZHA,PUDUPPARIYARAM,221642,10.8040600,76.6213200,CHITTUR EX,10.703201,76.746442
KERALA,32,PALAKKAD,MALAMPUZHA,PUDUSSERI,221643,10.7978300,76.7645800,CHITTUR EX,10.703201,76.746442
KERALA,32,PALAKKAD,MANNARKAD,ALANALLUR,221644,11.0111700,76.3444410,"MANNARKKAD EXCHANGE",10.994034,76.466526
KERALA,32,PALAKKAD,MANNARKAD,KANJIRAMPUZHA,221645,11.0044060,76.5132180,"MANNARKKAD EXCHANGE",10.994034,76.466526
KERALA,32,PALAKKAD,MANNARKAD,KARIMBA,221647,10.9143840,76.5226400,"MANNARKKAD EXCHANGE",10.994034,76.466526
KERALA,32,PALAKKAD,MANNARKAD,KOTTAPPADAM,221648,10.9964320,76.3926750,"MANNARKKAD EXCHANGE",10.994034,76.466526
KERALA,32,PALAKKAD,MANNARKAD,KUMARAMPUTHUR,221649,10.9868160,76.4328400,"MANNARKKAD EXCHANGE",10.994034,76.466526
KERALA,32,PALAKKAD,MANNARKAD,MANNARKKAD,221650,10.9915300,76.4546000,"MANNARKKAD EXCHANGE",10.994034,76.466526
KERALA,32,PALAKKAD,MANNARKAD,TACHAMPARA,221651,10.9611000,76.5052220,"MANNARKKAD EXCHANGE",10.994034,76.466526
KERALA,32,PALAKKAD,MANNARKAD,THACHANATTUKARA,221652,10.9568290,76.3613550,"MANNARKKAD EXCHANGE",10.994034,76.466526
KERALA,32,PALAKKAD,MANNARKAD,THENKARA,221653,11.0134740,76.4840780,"MANNARKKAD EXCHANGE",10.994034,76.466526
KERALA,32,PALAKKAD,NEMMARA,AYILOOR,221654,10.5787100,76.5731940,"NEMMARA OLT",10.593924,76.603636
KERALA,32,PALAKKAD,NEMMARA,ELAVANCHERRY,221655,10.6038030,76.6444130,"NEMMARA OLT",10.593924,76.603636
KERALA,32,PALAKKAD,NEMMARA,MELARCODE,221656,10.6079330,76.5633950,"NEMMARA OLT",10.593924,76.603636
KERALA,32,PALAKKAD,NEMMARA,NELLIAMPATHY,221657,10.5320010,76.6789010,"NEMMARA OLT",10.593924,76.603636
KERALA,32,PALAKKAD,NEMMARA,NEMMARA,221658,10.5937280,76.6002970,"NEMMARA OLT",10.593924,76.603636
KERALA,32,PALAKKAD,NEMMARA,PALLASSANA,221659,10.6338220,76.6584110,"NEMMARA OLT",10.593924,76.603636
KERALA,32,PALAKKAD,NEMMARA,VANDAZHY,221614,10.5872880,76.5188670,"NEMMARA OLT",10.593924,76.603636
KERALA,32,PALAKKAD,OTTAPPALAM,AMBALAPARA,221660,10.8322000,76.4161900,OTTAPPALAM EXC.,10.770806,76.380333
KERALA,32,PALAKKAD,OTTAPPALAM,ANANGANADI,221661,10.8292600,76.3449000,OTTAPPALAM EXC.,10.770806,76.380333
KERALA,32,PALAKKAD,OTTAPPALAM,CHALAVARA,221662,10.8370000,76.3082167,OTTAPPALAM EXC.,10.770806,76.380333
KERALA,32,PALAKKAD,OTTAPPALAM,LAKKIDIPERUR,221663,10.7702000,76.4422700,OTTAPPALAM EXC.,10.770806,76.380333
KERALA,32,PALAKKAD,OTTAPPALAM,NELLAYA,221676,10.8637900,76.2774300,OTTAPPALAM EXC.,10.770806,76.380333
KERALA,32,PALAKKAD,OTTAPPALAM,THRIKKADEERI,221688,10.8463400,76.3436400,OTTAPPALAM EXC.,10.770806,76.380333
KERALA,32,PALAKKAD,OTTAPPALAM,VALLAPUZHA,221681,10.8356100,76.2528900,OTTAPPALAM EXC.,10.770806,76.380333
KERALA,32,PALAKKAD,OTTAPPALAM,VANIAMKULAM,221664,10.7787500,76.3241000,OTTAPPALAM EXC.,10.770806,76.380333
KERALA,32,PALAKKAD,PALAKKAD,KERALASSERY,221665,10.8274530,76.4978810,PALAKKAD OLT,10.771201,76.652164
KERALA,32,PALAKKAD,PALAKKAD,KONGAD,221667,10.8588667,76.5145667,PALAKKAD OLT,10.771201,76.652164
KERALA,32,PALAKKAD,PALAKKAD,MANKARA,221668,10.7894230,76.4995350,PALAKKAD OLT,10.771201,76.652164
KERALA,32,PALAKKAD,PALAKKAD,MANNUR,221669,10.8017820,76.4737300,PALAKKAD OLT,10.771201,76.652164
KERALA,32,PALAKKAD,PALAKKAD,MUNDUR,221670,10.8387220,76.5802840,PALAKKAD OLT,10.771201,76.652164
KERALA,32,PALAKKAD,PALAKKAD,PARLI,221671,10.7965980,76.5625570,PALAKKAD OLT,10.771201,76.652164
KERALA,32,PALAKKAD,PALAKKAD,PIRAYARI,221672,10.7691030,76.6060030,PALAKKAD OLT,10.771201,76.652164
KERALA,32,PALAKKAD,PATTAMBI,KOPPAM,221673,10.8639394,76.1861996,"PATTAMBI EXCHANGE",10.804895,76.191998
KERALA,32,PALAKKAD,PATTAMBI,KULUKKALLUR,221674,10.8646920,76.2319500,"PATTAMBI EXCHANGE",10.804895,76.191998
KERALA,32,PALAKKAD,PATTAMBI,MUTHUTHALA,221675,10.8280370,76.1525970,"PATTAMBI EXCHANGE",10.804895,76.191998
KERALA,32,PALAKKAD,PATTAMBI,ONGALLUR,221677,10.8038830,76.2196670,"PATTAMBI EXCHANGE",10.804895,76.191998
KERALA,32,PALAKKAD,PATTAMBI,PARUDUR,221678,10.8383200,76.1118500,"PATTAMBI EXCHANGE",10.804895,76.191998
KERALA,32,PALAKKAD,PATTAMBI,PATTAMBI,221679,10.8030500,76.1819800,"PATTAMBI EXCHANGE",10.804895,76.191998
KERALA,32,PALAKKAD,PATTAMBI,THIRUVEGAPURAM,221680,10.8726350,76.1368910,"PATTAMBI EXCHANGE",10.804895,76.191998
KERALA,32,PALAKKAD,PATTAMBI,VILAYUR,221682,10.8893570,76.1903290,"PATTAMBI EXCHANGE",10.804895,76.191998
KERALA,32,PALAKKAD,SREEKRISHNAPURAM,CHERPLACHERRY,221683,10.8789300,76.3092700,"SREEKRISHNAPURAM EXCHANGE",10.913839,76.420004
KERALA,32,PALAKKAD,SREEKRISHNAPURAM,KADAMPAZHIPURAM,221684,10.8701667,76.4652333,"SREEKRISHNAPURAM EXCHANGE",10.913839,76.420004
KERALA,32,PALAKKAD,SREEKRISHNAPURAM,KARAKURISSI,221646,10.9381690,76.5054560,"SREEKRISHNAPURAM EXCHANGE",10.913839,76.420004
KERALA,32,PALAKKAD,SREEKRISHNAPURAM,KARIMPUZHA,221685,10.9210700,76.4187000,"SREEKRISHNAPURAM EXCHANGE",10.913839,76.420004
KERALA,32,PALAKKAD,SREEKRISHNAPURAM,POOKKOTTUKAVU,221686,10.8595167,76.3914833,"SREEKRISHNAPURAM EXCHANGE",10.913839,76.420004
KERALA,32,PALAKKAD,SREEKRISHNAPURAM,SREEKRISHNAPURAM,221687,10.9054167,76.4089500,"SREEKRISHNAPURAM EXCHANGE",10.913839,76.420004
KERALA,32,PALAKKAD,SREEKRISHNAPURAM,VELLINEZHI,221689,10.8872333,76.3656500,"SREEKRISHNAPURAM EXCHANGE",10.913839,76.420004
KERALA,32,PALAKKAD,TRITHALA,ANAKKARA,221690,10.8308800,76.0489800,TE KOOTANAD,10.761667,76.120550
KERALA,32,PALAKKAD,TRITHALA,CHALISSERI,221691,10.7375200,76.0885500,TE KOOTANAD,10.761667,76.120550
KERALA,32,PALAKKAD,TRITHALA,KAPPUR,221692,10.7877000,76.0566600,TE KOOTANAD,10.761667,76.120550
KERALA,32,PALAKKAD,TRITHALA,NAGALASSERY,221693,10.7604960,76.1219250,TE KOOTANAD,10.761667,76.120550
KERALA,32,PALAKKAD,TRITHALA,PATTITHARA,221694,10.7921200,76.0930900,TE KOOTANAD,10.761667,76.120550
KERALA,32,PALAKKAD,TRITHALA,THIRUMITTACODE,221695,10.7454270,76.1587610,TE KOOTANAD,10.761667,76.120550
KERALA,32,PALAKKAD,TRITHALA,THRITHALA,221696,10.8028900,76.1288800,TE KOOTANAD,10.761667,76.120550
KERALA,32,PATHANAMTHITTA,ELANTHOOR,CHENNEERKARA,221697,9.2517320,76.7338940,KOZ EXGE,9.339785,76.710401
KERALA,32,PATHANAMTHITTA,ELANTHOOR,CHERUKOLE,221698,9.3433510,76.7540110,KOZ EXGE,9.339785,76.710401
KERALA,32,PATHANAMTHITTA,ELANTHOOR,ELANTHOOR,221699,9.2907030,76.7207740,KOZ EXGE,9.339785,76.710401
KERALA,32,PATHANAMTHITTA,ELANTHOOR,KOZHENCHERRY,221700,9.3378040,76.7051320,KOZ EXGE,9.339785,76.710401
KERALA,32,PATHANAMTHITTA,ELANTHOOR,MALLAPUZHASSERY,221701,9.3160940,76.7094930,KOZ EXGE,9.339785,76.710401
KERALA,32,PATHANAMTHITTA,ELANTHOOR,NARANGANAM,221702,9.3144520,76.7543320,KOZ EXGE,9.339785,76.710401
KERALA,32,PATHANAMTHITTA,ELANTHOOR,OMALLUR,221703,9.2399740,76.7553520,KOZ EXGE,9.339785,76.710401
KERALA,32,PATHANAMTHITTA,KOIPURAM,AYIROOR,221704,9.3511820,76.7277530,KUMBANAD TE,9.368926,76.652525
KERALA,32,PATHANAMTHITTA,KOIPURAM,ERAVIPEROOR,221705,9.3669958,76.6288683,KUMBANAD TE,9.368926,76.652525
KERALA,32,PATHANAMTHITTA,KOIPURAM,EZHUMATTOOR,221706,9.3965020,76.6826510,KUMBANAD TE,9.368926,76.652525
KERALA,32,PATHANAMTHITTA,KOIPURAM,KOIPURAM,221707,9.3547030,76.6775120,KUMBANAD TE,9.368926,76.652525
KERALA,32,PATHANAMTHITTA,KOIPURAM,PURAMATTOM,221708,9.3886610,76.6520040,KUMBANAD TE,9.368926,76.652525
KERALA,32,PATHANAMTHITTA,KOIPURAM,THOTTAPUZHASSERY,221709,9.3382620,76.6991210,KUMBANAD TE,9.368926,76.652525
KERALA,32,PATHANAMTHITTA,KONNI,ARUVAPULAM,221710,9.2099710,76.8727040,KONNI EXGE,9.228053,76.851663
KERALA,32,PATHANAMTHITTA,KONNI,KONNI,221711,9.2278130,76.8513940,KONNI EXGE,9.228053,76.851663
KERALA,32,PATHANAMTHITTA,KONNI,MALAYALAPUZHA,221712,9.2885240,76.8225530,KONNI EXGE,9.228053,76.851663
KERALA,32,PATHANAMTHITTA,KONNI,MYLAPRA,221713,9.2908230,76.7981540,KONNI EXGE,9.228053,76.851663
KERALA,32,PATHANAMTHITTA,KONNI,PRAMADOM,221714,9.2271240,76.8172240,KONNI EXGE,9.228053,76.851663
KERALA,32,PATHANAMTHITTA,KONNI,THANNITHODU,221715,9.2729550,76.9284930,KONNI EXGE,9.228053,76.851663
KERALA,32,PATHANAMTHITTA,KONNI,VALLICODE,221716,9.2210835,76.7806434,KONNI EXGE,9.228053,76.851663
KERALA,32,PATHANAMTHITTA,MALLAPPALLY,ANICADU,221720,9.4714210,76.6698840,MALLAPPALLY TE,9.442912,76.655182
KERALA,32,PATHANAMTHITTA,MALLAPPALLY,KALLOOPPARA,221721,9.4019910,76.6341920,MALLAPPALLY TE,9.442912,76.655182
KERALA,32,PATHANAMTHITTA,MALLAPPALLY,KAVIYOOR,221722,9.3965230,76.6131040,MALLAPPALLY TE,9.442912,76.655182
KERALA,32,PATHANAMTHITTA,MALLAPPALLY,KOTTANADU,221723,9.4024730,76.7433350,MALLAPPALLY TE,9.442912,76.655182
KERALA,32,PATHANAMTHITTA,MALLAPPALLY,KOTTANGAL,221724,9.4529230,76.7248320,MALLAPPALLY TE,9.442912,76.655182
KERALA,32,PATHANAMTHITTA,MALLAPPALLY,KUNNATHANAM,221725,9.4349810,76.6111820,MALLAPPALLY TE,9.442912,76.655182
KERALA,32,PATHANAMTHITTA,MALLAPPALLY,MALLAPPALLY,221726,9.4437640,76.6554030,MALLAPPALLY TE,9.442912,76.655182
KERALA,32,PATHANAMTHITTA,PANDLAM,ARANMULA,221717,9.3200240,76.6673720,PANDALAM TE,9.222184,76.678104
KERALA,32,PATHANAMTHITTA,PANDLAM,KULANADA,221718,9.2429730,76.6723240,PANDALAM TE,9.222184,76.678104
KERALA,32,PATHANAMTHITTA,PANDLAM,MEZHUVELI,221719,9.2691140,76.7017530,PANDALAM TE,9.222184,76.678104
KERALA,32,PATHANAMTHITTA,PANDLAM,Pandalam,221727,9.2245700,76.6775500,PANDALAM TE,9.222184,76.678104
KERALA,32,PATHANAMTHITTA,PANDLAM,PANDALAM THEKKEKARA,221728,9.1958140,76.7353410,PANDALAM TE,9.222184,76.678104
KERALA,32,PATHANAMTHITTA,PANDLAM,THUMPAMON,221729,9.2167140,76.7136310,PANDALAM TE,9.222184,76.678104
KERALA,32,PATHANAMTHITTA,PARAKODE,ENADIMANGALAM,221730,9.1329040,76.8096040,ADO-ADOOR UI TE,9.157259,76.730025
KERALA,32,PATHANAMTHITTA,PARAKODE,ERATHU,221731,9.1313337,76.7390873,ADO-ADOOR UI TE,9.157259,76.730025
KERALA,32,PATHANAMTHITTA,PARAKODE,EZHAMKULAM,221732,9.1428684,76.7690851,ADO-ADOOR UI TE,9.157259,76.730025
KERALA,32,PATHANAMTHITTA,PARAKODE,KADAMPANADU,221733,9.0885630,76.7018730,ADO-ADOOR UI TE,9.157259,76.730025
KERALA,32,PATHANAMTHITTA,PARAKODE,KALANJOOR,221734,9.1216110,76.8519430,ADO-ADOOR UI TE,9.157259,76.730025
KERALA,32,PATHANAMTHITTA,PARAKODE,KODUMON,221735,9.1869230,76.7710030,ADO-ADOOR UI TE,9.157259,76.730025
KERALA,32,PATHANAMTHITTA,PARAKODE,PALLICKAL,221736,9.1547640,76.6731810,ADO-ADOOR UI TE,9.157259,76.730025
KERALA,32,PATHANAMTHITTA,PULIKEEZHU,KADAPRA,221737,9.3388720,76.5340620,TLA-TIRUVALLA UI TE,9.381981,76.573914
KERALA,32,PATHANAMTHITTA,PULIKEEZHU,KUTTOOR,221738,9.3594720,76.5880400,TLA-TIRUVALLA UI TE,9.381981,76.573914
KERALA,32,PATHANAMTHITTA,PULIKEEZHU,NEDUMPURAM,221739,9.3665330,76.5450620,TLA-TIRUVALLA UI TE,9.381981,76.573914
KERALA,32,PATHANAMTHITTA,PULIKEEZHU,NIRANAM,221740,9.3418120,76.5128820,TLA-TIRUVALLA UI TE,9.381981,76.573914
KERALA,32,PATHANAMTHITTA,PULIKEEZHU,PERINGARA,221741,9.3794120,76.5457930,TLA-TIRUVALLA UI TE,9.381981,76.573914
KERALA,32,PATHANAMTHITTA,RANNI,CHITTAR,221742,9.3302030,76.9266340,VADASSERIKARA EXGE,9.337084,76.826304
KERALA,32,PATHANAMTHITTA,RANNI,NARANAMOOZHY,221743,9.3870840,76.8432840,VADASSERIKARA EXGE,9.337084,76.826304
KERALA,32,PATHANAMTHITTA,RANNI,RANNI,221744,9.3765130,76.7789040,VADASSERIKARA EXGE,9.337084,76.826304
KERALA,32,PATHANAMTHITTA,RANNI,RANNI ANGADI,221745,9.3836040,76.7798310,VADASSERIKARA EXGE,9.337084,76.826304
KERALA,32,PATHANAMTHITTA,RANNI,RANNI PAZHAVANGADI,221746,9.3862050,76.7868040,VADASSERIKARA EXGE,9.337084,76.826304
KERALA,32,PATHANAMTHITTA,RANNI,RANNI PERUNAD,221747,9.3677940,76.8552720,VADASSERIKARA EXGE,9.337084,76.826304
KERALA,32,PATHANAMTHITTA,RANNI,SEETHATHODU,221748,9.3263540,76.9684210,VADASSERIKARA EXGE,9.337084,76.826304
KERALA,32,PATHANAMTHITTA,RANNI,VADASSERIKKARA,221749,9.3401920,76.8287540,VADASSERIKARA EXGE,9.337084,76.826304
KERALA,32,PATHANAMTHITTA,RANNI,VECHUCHIRA,221750,9.4355320,76.8534510,VADASSERIKARA EXGE,9.337084,76.826304
KERALA,32,THIRUVANANTHAPURAM,ATHIYANNOOR,ATHIYANNOOR,221751,8.3935774,77.0638108,POOVAR TE,8.325595,77.064468
KERALA,32,THIRUVANANTHAPURAM,ATHIYANNOOR,KANJIRAMKULAM,221752,8.3555850,77.0478020,POOVAR TE,8.325595,77.064468
KERALA,32,THIRUVANANTHAPURAM,ATHIYANNOOR,KARUMKULAM,221753,8.3378830,77.0497870,POOVAR TE,8.325595,77.064468
KERALA,32,THIRUVANANTHAPURAM,ATHIYANNOOR,KOTTUKAL,221754,8.3813010,77.0185560,POOVAR TE,8.325595,77.064468
KERALA,32,THIRUVANANTHAPURAM,ATHIYANNOOR,VENGANOOR,221755,8.4031914,77.0128427,POOVAR TE,8.325595,77.064468
KERALA,32,THIRUVANANTHAPURAM,CHIRAYINKEEZHU,ANJUTHENGU,221756,8.6687300,76.7589900,CHIRAYINKEEZHU TE,8.661843,76.787403
KERALA,32,THIRUVANANTHAPURAM,CHIRAYINKEEZHU,CHIRAYINKEEZHU,221758,8.6604500,76.7861100,CHIRAYINKEEZHU TE,8.661843,76.787403
KERALA,32,THIRUVANANTHAPURAM,CHIRAYINKEEZHU,KADAKKAVOOR,221759,8.6829500,76.7707200,CHIRAYINKEEZHU TE,8.661843,76.787403
KERALA,32,THIRUVANANTHAPURAM,CHIRAYINKEEZHU,KIZHUVILAM,221760,8.6632800,76.8099500,CHIRAYINKEEZHU TE,8.661843,76.787403
KERALA,32,THIRUVANANTHAPURAM,CHIRAYINKEEZHU,MUDAKKAL,221761,8.6870900,76.8654600,CHIRAYINKEEZHU TE,8.661843,76.787403
KERALA,32,THIRUVANANTHAPURAM,CHIRAYINKEEZHU,VAKKOM,221762,8.6887500,76.7562400,CHIRAYINKEEZHU TE,8.661843,76.787403
KERALA,32,THIRUVANANTHAPURAM,KILIMANOOR,KARAVARAM,221767,8.7526100,76.8143000,KILIMANOOR TE,8.766098,76.875047
KERALA,32,THIRUVANANTHAPURAM,KILIMANOOR,KILIMANOOR,221768,8.7731800,76.8577200,KILIMANOOR TE,8.766098,76.875047
KERALA,32,THIRUVANANTHAPURAM,KILIMANOOR,MADAVOOR,221769,8.8241100,76.8204100,KILIMANOOR TE,8.766098,76.875047
KERALA,32,THIRUVANANTHAPURAM,KILIMANOOR,NAGAROOR,221770,8.7549700,76.8578800,KILIMANOOR TE,8.766098,76.875047
KERALA,32,THIRUVANANTHAPURAM,KILIMANOOR,NAVAIKULAM,221771,8.7768400,76.7862000,KILIMANOOR TE,8.766098,76.875047
KERALA,32,THIRUVANANTHAPURAM,KILIMANOOR,PALLICKAL,221772,8.8241100,76.8098900,KILIMANOOR TE,8.766098,76.875047
KERALA,32,THIRUVANANTHAPURAM,KILIMANOOR,PAZHAYAKUNNUMMEL,221773,8.7733400,76.8806200,KILIMANOOR TE,8.766098,76.875047
KERALA,32,THIRUVANANTHAPURAM,KILIMANOOR,PULIMATH,221774,8.7315300,76.8980300,KILIMANOOR TE,8.766098,76.875047
KERALA,32,THIRUVANANTHAPURAM,NEDUMANGAD,ANAD,221775,8.6335400,77.0093200,NEDUMANGAD,8.613094,76.995858
KERALA,32,THIRUVANANTHAPURAM,NEDUMANGAD,ARUVIKKARA,221776,8.5706600,77.0149700,NEDUMANGAD,8.613094,76.995858
KERALA,32,THIRUVANANTHAPURAM,NEDUMANGAD,KARAKULAM,221777,8.5626200,76.9831800,NEDUMANGAD,8.613094,76.995858
KERALA,32,THIRUVANANTHAPURAM,NEDUMANGAD,PANAVOOR,221778,8.6605900,76.9879400,NEDUMANGAD,8.613094,76.995858
KERALA,32,THIRUVANANTHAPURAM,NEDUMANGAD,VEMBAYAM,221779,8.6172700,76.9374900,NEDUMANGAD,8.613094,76.995858
KERALA,32,THIRUVANANTHAPURAM,NEMOM,BALARAMAPURAM,221780,8.4281680,77.0471390,MALAYINKEEL OLT,8.488372,77.039746
KERALA,32,THIRUVANANTHAPURAM,NEMOM,KALLIYOOR,221781,8.4317470,77.0142440,MALAYINKEEL OLT,8.488372,77.039746
KERALA,32,THIRUVANANTHAPURAM,NEMOM,MALAYINKEEZH,221782,8.4886178,77.0377433,MALAYINKEEL OLT,8.488372,77.039746
KERALA,32,THIRUVANANTHAPURAM,NEMOM,MARANALLOOR,221783,8.4678891,77.0739266,MALAYINKEEL OLT,8.488372,77.039746
KERALA,32,THIRUVANANTHAPURAM,NEMOM,PALLICHAL,221784,8.4333738,77.0285153,MALAYINKEEL OLT,8.488372,77.039746
KERALA,32,THIRUVANANTHAPURAM,NEMOM,VILAPPIL,221785,8.5139820,77.0183600,MALAYINKEEL OLT,8.488372,77.039746
KERALA,32,THIRUVANANTHAPURAM,NEMOM,VILAVOORKKAL,221786,8.4921780,77.0191850,MALAYINKEEL OLT,8.488372,77.039746
KERALA,32,THIRUVANANTHAPURAM,PARASSALA,CHENKAL,221787,8.3773361,77.1210737,POOVAR TE,8.325595,77.064468
KERALA,32,THIRUVANANTHAPURAM,PARASSALA,KARODE,221788,8.3200710,77.1100520,POOVAR TE,8.325595,77.064468
KERALA,32,THIRUVANANTHAPURAM,PARASSALA,KULATHOOR,221789,8.3161297,77.0912738,POOVAR TE,8.325595,77.064468
KERALA,32,THIRUVANANTHAPURAM,PARASSALA,PARASSALA,221790,8.3447413,77.1582895,POOVAR TE,8.325595,77.064468
KERALA,32,THIRUVANANTHAPURAM,PARASSALA,POOVAR,221791,8.3196150,77.0696810,POOVAR TE,8.325595,77.064468
KERALA,32,THIRUVANANTHAPURAM,PARASSALA,THIRUPURAM,221792,8.3609845,77.0779647,POOVAR TE,8.325595,77.064468
KERALA,32,THIRUVANANTHAPURAM,PERUMKADAVILA,AMBOORI,221793,8.5054600,77.1877300,PERUMKADAVILA TE,8.436750,77.107970
KERALA,32,THIRUVANANTHAPURAM,PERUMKADAVILA,ARYANCODE,221794,8.4722784,77.1280763,PERUMKADAVILA TE,8.436750,77.107970
KERALA,32,THIRUVANANTHAPURAM,PERUMKADAVILA,KALLIKKADU,221795,8.5351294,77.1366623,PERUMKADAVILA TE,8.436750,77.107970
KERALA,32,THIRUVANANTHAPURAM,PERUMKADAVILA,KOLLAYIL,221796,8.3857170,77.1337340,PERUMKADAVILA TE,8.436750,77.107970
KERALA,32,THIRUVANANTHAPURAM,PERUMKADAVILA,KUNNATHUKAL,221797,8.3883820,77.1708440,PERUMKADAVILA TE,8.436750,77.107970
KERALA,32,THIRUVANANTHAPURAM,PERUMKADAVILA,OTTASEKHARAMANGALAM,221798,8.4913122,77.1256868,PERUMKADAVILA TE,8.436750,77.107970
KERALA,32,THIRUVANANTHAPURAM,PERUMKADAVILA,PERUMKADAVILA,221799,8.4418560,77.1116643,PERUMKADAVILA TE,8.436750,77.107970
KERALA,32,THIRUVANANTHAPURAM,PERUMKADAVILA,VELLARADA,221800,8.4278894,77.1960275,PERUMKADAVILA TE,8.436750,77.107970
KERALA,32,THIRUVANANTHAPURAM,POTHENCODE,ANDOORKONAM,221763,8.5879000,76.8542300,KANIYAPURAM TE,8.588453,76.852004
KERALA,32,THIRUVANANTHAPURAM,POTHENCODE,AZHOOR,221757,8.6263000,76.8134800,KANIYAPURAM TE,8.588453,76.852004
KERALA,32,THIRUVANANTHAPURAM,POTHENCODE,KADINAMKULAM,221764,8.5717400,76.8480200,KANIYAPURAM TE,8.588453,76.852004
KERALA,32,THIRUVANANTHAPURAM,POTHENCODE,MANGALAPURAM,221765,8.6237989,76.8480485,KANIYAPURAM TE,8.588453,76.852004
KERALA,32,THIRUVANANTHAPURAM,POTHENCODE,POTHENCODE,221766,8.6212900,76.8898200,KANIYAPURAM TE,8.588453,76.852004
KERALA,32,THIRUVANANTHAPURAM,VAMANAPURAM,KALLARA,221801,8.7509900,76.9391500,VENJARAMOOD TE,8.678100,76.902300
KERALA,32,THIRUVANANTHAPURAM,VAMANAPURAM,MANICKAL,221802,8.6575600,76.9206100,VENJARAMOOD TE,8.678100,76.902300
KERALA,32,THIRUVANANTHAPURAM,VAMANAPURAM,NANNIYODE,221803,8.6989400,77.0260700,VENJARAMOOD TE,8.678100,76.902300
KERALA,32,THIRUVANANTHAPURAM,VAMANAPURAM,NELLANAD,221804,8.6776100,76.9103200,VENJARAMOOD TE,8.678100,76.902300
KERALA,32,THIRUVANANTHAPURAM,VAMANAPURAM,PANGODE,221805,8.7649300,76.9629900,VENJARAMOOD TE,8.678100,76.902300
KERALA,32,THIRUVANANTHAPURAM,VAMANAPURAM,PERINGAMALA,221806,8.7273500,77.0437400,VENJARAMOOD TE,8.678100,76.902300
KERALA,32,THIRUVANANTHAPURAM,VAMANAPURAM,PULLAMPARA,221807,8.6806600,76.9412400,VENJARAMOOD TE,8.678100,76.902300
KERALA,32,THIRUVANANTHAPURAM,VAMANAPURAM,VAMANAPURAM,221808,8.7225200,76.8972000,VENJARAMOOD TE,8.678100,76.902300
KERALA,32,THIRUVANANTHAPURAM,VARKALA,CHEMMARUTHY,221809,8.7627242,76.7538270,VARKALA TE,8.732698,76.735125
KERALA,32,THIRUVANANTHAPURAM,VARKALA,CHERUNNIYOOR,221810,8.7234300,76.7589400,VARKALA TE,8.732698,76.735125
KERALA,32,THIRUVANANTHAPURAM,VARKALA,EDAVA,221811,8.7641650,76.6962603,VARKALA TE,8.732698,76.735125
KERALA,32,THIRUVANANTHAPURAM,VARKALA,ELAKAMON,221812,8.7739200,76.7254300,VARKALA TE,8.732698,76.735125
KERALA,32,THIRUVANANTHAPURAM,VARKALA,MANAMBOOR,221813,8.7161700,76.7762800,VARKALA TE,8.732698,76.735125
KERALA,32,THIRUVANANTHAPURAM,VARKALA,OTTOOR,221814,8.7322900,76.7850000,VARKALA TE,8.732698,76.735125
KERALA,32,THIRUVANANTHAPURAM,VARKALA,VETTOOR,221815,8.7170114,76.7411472,VARKALA TE,8.732698,76.735125
KERALA,32,THIRUVANANTHAPURAM,VELLANAD,ARYANAD,221816,8.5855100,77.0889300,KATTAKKADA TE,8.508178,77.081080
KERALA,32,THIRUVANANTHAPURAM,VELLANAD,KATTAKKADA,221817,8.5080477,77.0832354,KATTAKKADA TE,8.508178,77.081080
KERALA,32,THIRUVANANTHAPURAM,VELLANAD,KUTTICHAL,221818,8.5697200,77.1044800,KATTAKKADA TE,8.508178,77.081080
KERALA,32,THIRUVANANTHAPURAM,VELLANAD,POOVACHAL,221819,8.5325391,77.0868173,KATTAKKADA TE,8.508178,77.081080
KERALA,32,THIRUVANANTHAPURAM,VELLANAD,THOLICODE,221820,8.6456800,77.0560310,KATTAKKADA TE,8.508178,77.081080
KERALA,32,THIRUVANANTHAPURAM,VELLANAD,UZHAMALACKAL,221821,8.6062300,77.0507100,KATTAKKADA TE,8.508178,77.081080
KERALA,32,THIRUVANANTHAPURAM,VELLANAD,VELLANAD,221822,8.5617894,77.0546650,KATTAKKADA TE,8.508178,77.081080
KERALA,32,THIRUVANANTHAPURAM,VELLANAD,VITHURA,221823,8.6722500,77.0828500,KATTAKKADA TE,8.508178,77.081080
KERALA,32,THRISSUR,ANTHIKKAD,ANTHICAD,221824,10.4599000,76.1232800,KANDASSANKADAVE TE,10.474646,76.102231
KERALA,32,THRISSUR,ANTHIKKAD,ARIMPOOR,221888,10.4978400,76.1462900,KANDASSANKADAVE TE,10.474646,76.102231
KERALA,32,THRISSUR,ANTHIKKAD,CHAZHOOR,221825,10.4120000,76.1615200,KANDASSANKADAVE TE,10.474646,76.102231
KERALA,32,THRISSUR,ANTHIKKAD,MANALLUR,221826,10.4746300,76.1076600,KANDASSANKADAVE TE,10.474646,76.102231
KERALA,32,THRISSUR,ANTHIKKAD,THANNIYAM,221827,10.4138800,76.1214700,KANDASSANKADAVE TE,10.474646,76.102231
KERALA,32,THRISSUR,CHALAKKUDY,ATHIRAPPALLY,221828,10.2903500,76.5133900,CHALAKKUDY TE,10.304674,76.331526
KERALA,32,THRISSUR,CHALAKKUDY,KADUKUTTY,221829,10.2700610,76.3110620,CHALAKKUDY TE,10.304674,76.331526
KERALA,32,THRISSUR,CHALAKKUDY,KODASSERY,221830,10.3432500,76.3946000,CHALAKKUDY TE,10.304674,76.331526
KERALA,32,THRISSUR,CHALAKKUDY,KORATTY,221831,10.2621590,76.3519980,CHALAKKUDY TE,10.304674,76.331526
KERALA,32,THRISSUR,CHALAKKUDY,MELUR,221832,10.2936600,76.3529200,CHALAKKUDY TE,10.304674,76.331526
KERALA,32,THRISSUR,CHALAKKUDY,PARIYARAM,221833,10.3199000,76.3706800,CHALAKKUDY TE,10.304674,76.331526
KERALA,32,THRISSUR,CHAVAKKAD,KADAPPURAM,221834,10.5376900,76.0282200,GURUVAYUR TE,10.593160,76.029160
KERALA,32,THRISSUR,CHAVAKKAD,ORUMANAYUR,221835,10.5622500,76.0328100,GURUVAYUR TE,10.593160,76.029160
KERALA,32,THRISSUR,CHAVAKKAD,PUNNAYUR,221836,10.6388400,75.9936400,GURUVAYUR TE,10.593160,76.029160
KERALA,32,THRISSUR,CHAVAKKAD,PUNNYURKULUM,221837,10.6739700,75.9958000,GURUVAYUR TE,10.593160,76.029160
KERALA,32,THRISSUR,CHAVAKKAD,VADEKKEKAD,221838,10.6464400,76.0129200,GURUVAYUR TE,10.593160,76.029160
KERALA,32,THRISSUR,CHERPU,AVINISSERY,221839,10.4682700,76.2302900,CHERPPU TELEPHONE EXCHANGE,10.445009,76.213381
KERALA,32,THRISSUR,CHERPU,CHERPU,221840,10.4379190,76.2107630,CHERPPU TELEPHONE EXCHANGE,10.445009,76.213381
KERALA,32,THRISSUR,CHERPU,PARALAM,221841,10.4580290,76.1919450,CHERPPU TELEPHONE EXCHANGE,10.445009,76.213381
KERALA,32,THRISSUR,CHERPU,VALLACHIRA,221842,10.4387730,76.2346890,CHERPPU TELEPHONE EXCHANGE,10.445009,76.213381
KERALA,32,THRISSUR,CHOWANNUR,CHOONDAL,221843,10.6184000,76.1199600,KUNNAMKULAM TE,10.648761,76.070626
KERALA,32,THRISSUR,CHOWANNUR,CHOWWANNUR,221844,10.6662500,76.0872500,KUNNAMKULAM TE,10.648761,76.070626
KERALA,32,THRISSUR,CHOWANNUR,KADANGODE,221905,10.6772600,76.1217100,KUNNAMKULAM TE,10.648761,76.070626
KERALA,32,THRISSUR,CHOWANNUR,KADAVALLUR,221845,10.6942300,76.0879000,KUNNAMKULAM TE,10.648761,76.070626
KERALA,32,THRISSUR,CHOWANNUR,KANDANASSERY,221846,10.6016000,76.0916800,KUNNAMKULAM TE,10.648761,76.070626
KERALA,32,THRISSUR,CHOWANNUR,KATTAKAMPAL,221847,10.6870900,76.0444700,KUNNAMKULAM TE,10.648761,76.070626
KERALA,32,THRISSUR,CHOWANNUR,PORKULAM,221848,10.6733000,76.0770600,KUNNAMKULAM TE,10.648761,76.070626
KERALA,32,THRISSUR,CHOWANNUR,VELUR,221910,10.6399600,76.1576800,KUNNAMKULAM TE,10.648761,76.070626
KERALA,32,THRISSUR,IRINJALAKKUDA,KARALAM,221849,10.3962280,76.1885760,IRINJALAKKUDA TE,10.347019,76.222730
KERALA,32,THRISSUR,IRINJALAKKUDA,KATTUR,221850,10.3713900,76.1587100,IRINJALAKKUDA TE,10.347019,76.222730
KERALA,32,THRISSUR,IRINJALAKKUDA,MURIYAD,221851,10.3682900,76.2651400,IRINJALAKKUDA TE,10.347019,76.222730
KERALA,32,THRISSUR,IRINJALAKKUDA,PARAPPUKKARA,221852,10.4037500,76.2773200,IRINJALAKKUDA TE,10.347019,76.222730
KERALA,32,THRISSUR,KODAKARA,ALAGAPPA NAGAR,221853,10.4349000,76.2796700,KODAKARA TELEPHONE EXCHANGE,10.372670,76.305790
KERALA,32,THRISSUR,KODAKARA,KODAKARA,221854,10.3726700,76.3057900,KODAKARA TELEPHONE EXCHANGE,10.372670,76.305790
KERALA,32,THRISSUR,KODAKARA,MATTATHUR,221855,10.3761720,76.3622300,KODAKARA TELEPHONE EXCHANGE,10.372670,76.305790
KERALA,32,THRISSUR,KODAKARA,NENMENIKKARA,221856,10.4454000,76.2605130,KODAKARA TELEPHONE EXCHANGE,10.372670,76.305790
KERALA,32,THRISSUR,KODAKARA,PUDUKKAD,221857,10.4249100,76.2679050,KODAKARA TELEPHONE EXCHANGE,10.372670,76.305790
KERALA,32,THRISSUR,KODAKARA,TRIKKUR,221858,10.4523660,76.2850500,KODAKARA TELEPHONE EXCHANGE,10.372670,76.305790
KERALA,32,THRISSUR,KODAKARA,VARANDARAPPILLY,221859,10.4209100,76.3329600,KODAKARA TELEPHONE EXCHANGE,10.372670,76.305790
KERALA,32,THRISSUR,MALA,ALUR,221862,10.3414300,76.2818500,MALA TE,10.240370,76.266200
KERALA,32,THRISSUR,MALA,ANNAMANADA,221863,10.2391120,76.3288400,MALA TE,10.240370,76.266200
KERALA,32,THRISSUR,MALA,KUZHUR,221864,10.2121900,76.2904400,MALA TE,10.240370,76.266200
KERALA,32,THRISSUR,MALA,MALA,221865,10.2403360,76.2662100,MALA TE,10.240370,76.266200
KERALA,32,THRISSUR,MALA,POYYA,221866,10.2123500,76.2653500,MALA TE,10.240370,76.266200
KERALA,32,THRISSUR,MATHILAKAM,EDATHIRUTHY,221867,10.3814200,76.1483200,PERINJANNAM TE,10.313260,76.148570
KERALA,32,THRISSUR,MATHILAKAM,EDAVILANGU,221860,10.2403800,76.1694700,PERINJANNAM TE,10.313260,76.148570
KERALA,32,THRISSUR,MATHILAKAM,ERIYAD,221861,10.2111700,76.1626400,PERINJANNAM TE,10.313260,76.148570
KERALA,32,THRISSUR,MATHILAKAM,KAIPAMANGALAM,221868,10.3393400,76.1360600,PERINJANNAM TE,10.313260,76.148570
KERALA,32,THRISSUR,MATHILAKAM,MATHILAKAM,221869,10.2888670,76.1679500,PERINJANNAM TE,10.313260,76.148570
KERALA,32,THRISSUR,MATHILAKAM,PERINJANAM,221870,10.3132600,76.1485700,PERINJANNAM TE,10.313260,76.148570
KERALA,32,THRISSUR,MATHILAKAM,SREE NARAYANAPURAM,221871,10.2640330,76.1798320,PERINJANNAM TE,10.313260,76.148570
KERALA,32,THRISSUR,MULLASSERY,ELAVALLY,221872,10.5767200,76.0763200,VENKITANGU TE,10.522583,76.090283
KERALA,32,THRISSUR,MULLASSERY,MULLASSERY,221873,10.5340800,76.0865700,VENKITANGU TE,10.522583,76.090283
KERALA,32,THRISSUR,MULLASSERY,PAVARATTY,221874,10.5661000,76.0617900,VENKITANGU TE,10.522583,76.090283
KERALA,32,THRISSUR,MULLASSERY,VENKITANGU,221875,10.5192100,76.0914800,VENKITANGU TE,10.522583,76.090283
KERALA,32,THRISSUR,OLLUKKARA,MADAKKATHARA,221877,10.5664200,76.2597300,CHEMBUKAVU TE,10.530046,76.221580
KERALA,32,THRISSUR,OLLUKKARA,NADATHARA,221878,10.5061300,76.2791000,CHEMBUKAVU TE,10.530046,76.221580
KERALA,32,THRISSUR,OLLUKKARA,PANANCHERY,221879,10.5582100,76.3317500,CHEMBUKAVU TE,10.530046,76.221580
KERALA,32,THRISSUR,OLLUKKARA,PUTHUR,221880,10.4904300,76.2774700,CHEMBUKAVU TE,10.530046,76.221580
KERALA,32,THRISSUR,PAZHAYANNUR,CHELAKKARA,221881,10.6947300,76.3346000,CHELAKKARA TE,10.700658,76.345509
KERALA,32,THRISSUR,PAZHAYANNUR,KONDAZHY,221882,10.7261800,76.3966700,CHELAKKARA TE,10.700658,76.345509
KERALA,32,THRISSUR,PAZHAYANNUR,PANJAL,221883,10.7218400,76.3046200,CHELAKKARA TE,10.700658,76.345509
KERALA,32,THRISSUR,PAZHAYANNUR,PAZHAYANNUR,221884,10.6882400,76.4234500,CHELAKKARA TE,10.700658,76.345509
KERALA,32,THRISSUR,PAZHAYANNUR,THIRUVILWAMALA,221885,10.7329100,76.4289700,CHELAKKARA TE,10.700658,76.345509
KERALA,32,THRISSUR,PAZHAYANNUR,VALLATHOL NAGAR,221886,10.7490400,76.2761800,CHELAKKARA TE,10.700658,76.345509
KERALA,32,THRISSUR,PUZHAKKAL,ADAT,221887,10.5530400,76.1664800,CHEMBUKAVU TE,10.530046,76.221580
KERALA,32,THRISSUR,PUZHAKKAL,AVANUR,221889,10.6034800,76.1935800,CHEMBUKAVU TE,10.530046,76.221580
KERALA,32,THRISSUR,PUZHAKKAL,KAIPARAMBA,221890,10.5920300,76.1546600,CHEMBUKAVU TE,10.530046,76.221580
KERALA,32,THRISSUR,PUZHAKKAL,KOLAZHY,221876,10.5851100,76.2156500,CHEMBUKAVU TE,10.530046,76.221580
KERALA,32,THRISSUR,PUZHAKKAL,MULAKUNNATHUKAVU,221891,10.6011200,76.2107900,CHEMBUKAVU TE,10.530046,76.221580
KERALA,32,THRISSUR,PUZHAKKAL,THOLUR,221892,10.5642900,76.1233400,CHEMBUKAVU TE,10.530046,76.221580
KERALA,32,THRISSUR,THALIKKULAM,ENGANDIYUR,221893,10.5022300,76.0620100,KANDASSANKADAVE TE,10.474646,76.102231
KERALA,32,THRISSUR,THALIKKULAM,NATTIKA,221894,10.4143258,76.1113686,KANDASSANKADAVE TE,10.474646,76.102231
KERALA,32,THRISSUR,THALIKKULAM,THALIKULAM,221895,10.4395700,76.0952500,KANDASSANKADAVE TE,10.474646,76.102231
KERALA,32,THRISSUR,THALIKKULAM,VADANAPPILLY,221896,10.4691300,76.0811600,KANDASSANKADAVE TE,10.474646,76.102231
KERALA,32,THRISSUR,THALIKKULAM,VALAPPAD,221897,10.4053296,76.1108899,KANDASSANKADAVE TE,10.474646,76.102231
KERALA,32,THRISSUR,VELLANGALLUR,PADIYUR,221898,10.3237300,76.1790270,VELLANGALLUR TE,10.302477,76.216989
KERALA,32,THRISSUR,VELLANGALLUR,POOMANGALAM,221899,10.3043400,76.1926000,VELLANGALLUR TE,10.302477,76.216989
KERALA,32,THRISSUR,VELLANGALLUR,PUTHENCHIRA,221900,10.2653700,76.2384300,VELLANGALLUR TE,10.302477,76.216989
KERALA,32,THRISSUR,VELLANGALLUR,VELLANGALLUR,221901,10.2834900,76.2133900,VELLANGALLUR TE,10.302477,76.216989
KERALA,32,THRISSUR,VELLANGALLUR,VELLOOKKARA,221902,10.3177400,76.2404400,VELLANGALLUR TE,10.302477,76.216989
KERALA,32,THRISSUR,WADAKKANCHERY,DESAMANGALAM,221903,10.7544300,76.2339100,WADAKKANCHERY TE,10.659381,76.250130
KERALA,32,THRISSUR,WADAKKANCHERY,ERUMAPETTY,221904,10.6816600,76.1855500,WADAKKANCHERY TE,10.659381,76.250130
KERALA,32,THRISSUR,WADAKKANCHERY,MULLURKARA,221906,10.7051400,76.2699800,WADAKKANCHERY TE,10.659381,76.250130
KERALA,32,THRISSUR,WADAKKANCHERY,MUNDATHIKODE,221907,10.6375500,76.2123800,WADAKKANCHERY TE,10.659381,76.250130
KERALA,32,THRISSUR,WADAKKANCHERY,THEKKUMKARA,221908,10.6361900,76.2731600,WADAKKANCHERY TE,10.659381,76.250130
KERALA,32,THRISSUR,WADAKKANCHERY,VARAVOOR,221909,10.7162000,76.2151900,WADAKKANCHERY TE,10.659381,76.250130
KERALA,32,THRISSUR,WADAKKANCHERY,WADAKKANCHERRY,221911,10.6618800,76.2454800,WADAKKANCHERY TE,10.659381,76.250130
KERALA,32,WAYANAD,KALPETTA,KOTTATHARA,221913,11.6767400,76.0239800,KELPETTA EX,11.606873,76.083306
KERALA,32,WAYANAD,KALPETTA,MEPPADI,221914,11.5595200,76.1311900,KELPETTA EX,11.606873,76.083306
KERALA,32,WAYANAD,KALPETTA,MUPPAINADU,221915,11.5570400,76.2241400,KELPETTA EX,11.606873,76.083306
KERALA,32,WAYANAD,KALPETTA,MUTTIL,221916,11.6427600,76.1156000,KELPETTA EX,11.606873,76.083306
KERALA,32,WAYANAD,KALPETTA,PADINHARETHARA,221917,11.6514800,75.9772500,KELPETTA EX,11.606873,76.083306
KERALA,32,WAYANAD,KALPETTA,POZHUTHANA,221918,11.5830980,76.0181600,KELPETTA EX,11.606873,76.083306
KERALA,32,WAYANAD,KALPETTA,THARIYODE,221919,11.6380300,76.0083500,KELPETTA EX,11.606873,76.083306
KERALA,32,WAYANAD,KALPETTA,VENGAPPALLY,221920,11.6317600,76.0329400,KELPETTA EX,11.606873,76.083306
KERALA,32,WAYANAD,KALPETTA,VYTHIRI,221921,11.5571000,76.0387700,KELPETTA EX,11.606873,76.083306
KERALA,32,WAYANAD,MANANTHAVADY,EDAVAKA,221922,11.7768600,75.9764000,MANATHAVADY EX,11.797490,76.006700
KERALA,32,WAYANAD,MANANTHAVADY,MANANTHAVADY,221923,11.8019100,76.0026600,MANATHAVADY EX,11.797490,76.006700
KERALA,32,WAYANAD,MANANTHAVADY,THAVINHAL,221925,11.8419900,75.9489700,MANATHAVADY EX,11.797490,76.006700
KERALA,32,WAYANAD,MANANTHAVADY,THIRUNELLY,221926,11.8490900,76.0664200,MANATHAVADY EX,11.797490,76.006700
KERALA,32,WAYANAD,MANANTHAVADY,THONDERNAD,221927,11.7437200,75.8821100,MANATHAVADY EX,11.797490,76.006700
KERALA,32,WAYANAD,MANANTHAVADY,VELLAMUNDA,221928,11.7339319,75.9562833,MANATHAVADY EX,11.797490,76.006700
KERALA,32,WAYANAD,PANAMARAM,KANIAMBETTA,221912,11.6958000,76.0807700,PULPALLY  E,11.797820,76.164050
KERALA,32,WAYANAD,PANAMARAM,MULLANKOLLY,221931,11.8169900,76.1642900,PULPALLY  E,11.797820,76.164050
KERALA,32,WAYANAD,PANAMARAM,PANAMARAM,221924,11.7372300,76.0726600,PULPALLY  E,11.797820,76.164050
KERALA,32,WAYANAD,PANAMARAM,POOTHADI,221934,11.7236500,76.1531800,PULPALLY  E,11.797820,76.164050
KERALA,32,WAYANAD,PANAMARAM,PULPALLI,221935,11.7897800,76.1662100,PULPALLY  E,11.797820,76.164050
KERALA,32,WAYANAD,SULTHAN BATHERY,AMBALAVAYAL,221929,11.6224700,76.2113700,S.BATHERY EX,11.662512,76.259453
KERALA,32,WAYANAD,SULTHAN BATHERY,MEENANGADI,221930,11.6593290,76.1612450,S.BATHERY EX,11.662512,76.259453
KERALA,32,WAYANAD,SULTHAN BATHERY,NENMENI,221932,11.6347000,76.2775600,S.BATHERY EX,11.662512,76.259453
KERALA,32,WAYANAD,SULTHAN BATHERY,NOOLPUZHA,221933,11.6681500,76.3138000,S.BATHERY EX,11.662512,76.259453
KERALA,32,WAYANAD,SULTHAN BATHERY,SULTHAN BATHERY,221936,11.6629100,76.2551800,S.BATHERY EX,11.662512,76.259453